{"type": "Feature", "properties": {"name": "Abu Dhabi region", "source": "OpenStreetMap relation 13249273 via Nominatim, full detail", "license": "ODbL, (c) OpenStreetMap contributors", "fetched": "2026-10-07"}, "geometry": {"type": "MultiPolygon", "coordinates": [[[[53.4748663, 24.8275831], [53.479793, 24.8201202], [53.4967875, 24.8146825], [53.5129237, 24.8157576], [53.5233607, 24.822208], [53.5272917, 24.8312131], [53.5237555, 24.8398436], [53.5135245, 24.8462148], [53.5003752, 24.8499845], [53.489818, 24.8495327], [53.4785227, 24.8438003], [53.4758276, 24.8318206], [53.4748663, 24.8275831]]], [[[53.5953858, 24.153128], [53.5968763, 24.144976], [53.6000541, 24.1372513], [53.6044739, 24.1307235], [53.610995, 24.1250218], [53.6179091, 24.1204978], [53.6316544, 24.1145653], [53.6642139, 24.1035865], [53.7125091, 24.0954581], [53.7125113, 24.095458], [53.7686539, 24.0934957], [53.8028107, 24.0971957], [53.8252535, 24.0559776], [53.8401656, 24.0285803], [53.8618116, 24.0343655], [53.8745128, 24.03776], [53.9232092, 24.0489653], [53.9249625, 24.0399337], [54.0046978, 24.0518571], [54.0663518, 24.0699982], [54.117622, 24.0916664], [54.1433759, 24.0372642], [54.1618468, 23.996245], [54.1813957, 23.95493], [54.2150706, 23.8832766], [54.2433077, 23.8280119], [54.2434659, 23.8277091], [54.2638716, 23.788651], [54.2920224, 23.7320584], [54.3051557, 23.6894279], [54.3214716, 23.6885273], [54.337049, 23.67386], [54.350453, 23.667871], [54.370274, 23.671513], [54.4004583, 23.6723989], [54.4007099, 23.6723225], [54.466804, 23.652258], [54.479126, 23.6286391], [54.5188039, 23.6036442], [54.5562394, 23.583178], [54.5674296, 23.5771718], [54.6379542, 23.545276], [54.7163597, 23.5098068], [54.7359411, 23.4983008], [54.7750266, 23.4753667], [54.8186476, 23.4519795], [54.9146366, 23.4671898], [54.940831, 23.5428581], [54.940936, 23.5431613], [54.952557, 23.5639256], [54.9712185, 23.6234435], [54.9821466, 23.6566136], [54.9902087, 23.6828963], [54.9949193, 23.7005758], [55.0016002, 23.7158983], [55.0243568, 23.7496809], [55.0277354, 23.7589123], [55.0285658, 23.7624982], [55.0292995, 23.7660228], [55.0315188, 23.7789233], [55.0399385, 23.8113471], [55.0417543, 23.8222724], [55.0417591, 23.822301], [55.0431041, 23.8331296], [55.0456786, 23.8459821], [55.0583502, 23.8841898], [55.0634076, 23.9018723], [55.0667066, 23.910806], [55.0766722, 23.9390659], [55.0864147, 23.9695762], [55.0928396, 23.993342], [55.0964734, 23.9925792], [55.0971272, 23.992442], [55.1033055, 24.0075419], [55.1043121, 24.0112999], [55.1047338, 24.0149453], [55.1045361, 24.0193977], [55.0926076, 24.0727908], [55.0921631, 24.0771895], [55.0930022, 24.09722], [55.0936282, 24.1011327], [55.10214, 24.1251753], [55.1027012, 24.1287892], [55.1027726, 24.1315891], [55.1012769, 24.1327361], [55.0901594, 24.1326214], [55.0874962, 24.13298], [55.0851679, 24.1336705], [55.0830969, 24.1344159], [55.0815452, 24.1352644], [55.0806047, 24.1358044], [55.0795212, 24.1365825], [55.078278, 24.1375504], [55.0736916, 24.1412113], [55.0700279, 24.1440623], [55.0614489, 24.150738], [55.0592874, 24.1521047], [55.0574869, 24.1530254], [55.0563552, 24.1535148], [55.0538578, 24.1544026], [55.0518803, 24.1549212], [55.050587, 24.1551445], [55.048797, 24.1553616], [55.0467184, 24.1555114], [55.0466378, 24.1557194], [55.0465098, 24.1560499], [55.0463258, 24.1565394], [55.0452717, 24.1635881], [55.0476088, 24.1648677], [55.0494478, 24.1781757], [55.044589, 24.1787149], [55.0447191, 24.1798804], [55.0366351, 24.1808261], [55.0364293, 24.1812462], [55.0360593, 24.1820018], [55.036332, 24.1827712], [55.0379263, 24.1845431], [55.0375372, 24.1853168], [55.0370996, 24.1867836], [55.040613, 24.1949239], [55.0544824, 24.1872629], [55.0587757, 24.1855057], [55.061684, 24.1844169], [55.0657176, 24.1831994], [55.0666338, 24.1842313], [55.0729217, 24.1824312], [55.0759378, 24.1805927], [55.087368, 24.1812631], [55.0946409, 24.181475], [55.1028211, 24.18179], [55.1023279, 24.1857572], [55.098398, 24.1855941], [55.099212, 24.1929568], [55.0958228, 24.2228793], [55.0959931, 24.233021], [55.0962242, 24.2431198], [55.0961009, 24.2456678], [55.095037, 24.2493429], [55.0919814, 24.2588011], [55.091964, 24.2590084], [55.0882711, 24.3029385], [55.0881593, 24.3042686], [55.0768798, 24.3251036], [55.0590804, 24.3914808], [55.0546749, 24.4076922], [55.0552488, 24.4137539], [55.0553144, 24.4144464], [55.0344403, 24.4169765], [55.0287247, 24.419895], [55.0859348, 24.5193471], [55.0961193, 24.5382613], [55.0997848, 24.5455271], [55.1233163, 24.5953551], [55.1268747, 24.6014186], [55.1311051, 24.6086269], [55.139335, 24.625912], [55.1421577, 24.6362347], [55.1419665, 24.6405219], [55.1401511, 24.6812433], [55.145572, 24.6791666], [55.170739, 24.6940543], [55.1490337, 24.7180165], [55.1427752, 24.7249253], [55.1400065, 24.7282586], [55.1102821, 24.7640678], [55.0832626, 24.7965946], [55.0734885, 24.8083947], [55.0629388, 24.8210492], [55.0533709, 24.8326174], [55.0503875, 24.8361445], [55.0442703, 24.8395728], [55.0237449, 24.8681712], [55.0229813, 24.8684934], [55.0227838, 24.8685902], [55.0176828, 24.8703701], [55.0174882, 24.8704403], [54.9857967, 24.8816496], [54.9856044, 24.88172], [54.9649904, 24.8890064], [54.9647895, 24.8890789], [54.9414644, 24.8972624], [54.9407342, 24.8975268], [54.9403756, 24.8976222], [54.9399513, 24.8977504], [54.9372824, 24.8984626], [54.9073366, 24.9064535], [54.9043886, 24.9072635], [54.8905466, 24.9109464], [54.889718, 24.9111672], [54.8895643, 24.9112082], [54.8894716, 24.9112937], [54.8878063, 24.9128225], [54.8760019, 24.9236474], [54.8517008, 24.9458952], [54.8464262, 24.9491133], [54.8291998, 24.9649262], [54.8027797, 24.9891745], [54.7720574, 25.0173651], [54.742954, 25.0440644], [54.7153981, 25.0693387], [54.7068563, 25.0683395], [54.6691498, 25.0574199], [54.6379955, 25.0424612], [54.629642, 25.0418831], [54.5922501, 25.0331272], [54.5571205, 25.0185467], [54.5249701, 24.9984386], [54.4976144, 24.9738844], [54.4753681, 24.9453672], [54.4701286, 24.935308], [54.4468433, 24.9055861], [54.4306201, 24.8740017], [54.426485, 24.8600424], [54.0141533, 24.5548494], [53.8204043, 24.5236185], [53.6274709, 24.5784322], [53.6353962, 24.5115785], [53.6445062, 24.4346869], [53.6535038, 24.358698], [53.6630768, 24.2777995], [53.6388344, 24.2456922], [53.6159397, 24.2112734], [53.6013939, 24.1828852], [53.5978307, 24.1730613], [53.5959765, 24.1628857], [53.5953858, 24.153128]]], [[[53.6394557, 24.8446514], [53.6431121, 24.8387007], [53.6519012, 24.8333573], [53.66263, 24.8337], [53.672346, 24.8369871], [53.6776332, 24.8435766], [53.6762427, 24.8482497], [53.6721572, 24.8513495], [53.6654109, 24.85339], [53.6572055, 24.8544181], [53.6477126, 24.8536392], [53.6413268, 24.8491532], [53.6394557, 24.8446514]]], [[[53.7085677, 24.9048837], [53.7114688, 24.8996677], [53.7147647, 24.8960709], [53.7218715, 24.8928009], [53.732463, 24.8943114], [53.7391406, 24.9014583], [53.7393294, 24.9067521], [53.7370807, 24.9116097], [53.7316562, 24.9149103], [53.7230903, 24.9155175], [53.7148334, 24.9134313], [53.7098552, 24.9090719], [53.7085677, 24.9048837]]], [[[53.7232706, 24.797949], [53.7254335, 24.7946142], [53.7275965, 24.7920428], [53.7298452, 24.7910143], [53.7336046, 24.7909519], [53.7368147, 24.7935545], [53.7383081, 24.7972634], [53.737982, 24.8000528], [53.7364714, 24.8029044], [53.7325746, 24.8040108], [53.7276651, 24.8036991], [53.7241461, 24.8014708], [53.7232706, 24.797949]]]]}}