{"type": "Feature", "properties": {"name": "Ajman (main part of the emirate)", "source": "OpenStreetMap relation 3766482 via Nominatim, full detail; only the part containing Ajman city (Masfout and Manama exclaves left out)", "license": "ODbL, (c) OpenStreetMap contributors", "fetched": "2026-10-08"}, "geometry": {"type": "MultiPolygon", "coordinates": [[[[55.2350748, 25.5700834], [55.422971, 25.3989174], [55.423412, 25.3983385], [55.42344, 25.398313], [55.42427, 25.3974049], [55.4249751, 25.3964959], [55.426953, 25.3941343], [55.4273193, 25.3936005], [55.4276549, 25.3932981], [55.4277612, 25.3932973], [55.4284234, 25.3932219], [55.4291, 25.3930995], [55.4292465, 25.3930206], [55.4292199, 25.3927498], [55.429341, 25.3924786], [55.4295657, 25.3922593], [55.4316511, 25.3910521], [55.4316973, 25.3910253], [55.4322377, 25.3907109], [55.4337163, 25.3898506], [55.4363521, 25.3883084], [55.4391831, 25.3866616], [55.4424238, 25.3847632], [55.4449025, 25.3833181], [55.4476874, 25.3816935], [55.4570386, 25.3762383], [55.4576753, 25.3758614], [55.4584199, 25.3754924], [55.4801813, 25.3648278], [55.4915284, 25.3592625], [55.4919329, 25.3590641], [55.4935767, 25.3582581], [55.4937628, 25.3581668], [55.4970096, 25.3566908], [55.4980164, 25.356233], [55.4992683, 25.3560216], [55.4998242, 25.3560395], [55.5001267, 25.3560489], [55.5006827, 25.3560654], [55.5050756, 25.35685], [55.5054208, 25.3569123], [55.5113316, 25.3580038], [55.5158118, 25.3588309], [55.5163735, 25.3589349], [55.5326957, 25.3619504], [55.5382006, 25.362955], [55.5388843, 25.3630809], [55.555067, 25.3646065], [55.5595844, 25.3650267], [55.5745799, 25.366421], [55.5827626, 25.3671807], [55.5832351, 25.367224], [55.5889724, 25.3677759], [55.5911329, 25.3679855], [55.5924759, 25.3683217], [55.5934003, 25.3687467], [55.5948639, 25.3698975], [55.6003661, 25.3761762], [55.6008401, 25.3767158], [55.6295938, 25.4096576], [55.6300431, 25.4116597], [55.6299328, 25.4122687], [55.6292323, 25.4135475], [55.628758, 25.4142195], [55.6284599, 25.4146958], [55.6275961, 25.4155336], [55.621195, 25.4199911], [55.6199456, 25.4207648], [55.619236, 25.4210652], [55.6181449, 25.4213574], [55.6158136, 25.4217014], [55.6034675, 25.4234431], [55.5988953, 25.4240929], [55.5985443, 25.4241528], [55.5964736, 25.4245062], [55.5928051, 25.4258117], [55.5922817, 25.4259953], [55.5914043, 25.4263031], [55.5866516, 25.4280336], [55.5693169, 25.4343453], [55.564846, 25.4359712], [55.5366266, 25.446223], [55.5343284, 25.4466564], [55.5222319, 25.4457767], [55.5185165, 25.4456517], [55.5164033, 25.4455916], [55.5118675, 25.4450446], [55.5091666, 25.4446997], [55.5077153, 25.4445192], [55.5060693, 25.4443153], [55.4879569, 25.4420045], [55.4858437, 25.4421264], [55.4840942, 25.4428076], [55.4771288, 25.4472022], [55.4750384, 25.4486382], [55.4723193, 25.4507081], [55.4709612, 25.4516781], [55.324428, 25.6230138], [55.3205286, 25.6184125], [55.3117729, 25.6106044], [55.3015804, 25.5994214], [55.2892555, 25.5829995], [55.2795994, 25.5665793], [55.2730684, 25.5680481], [55.2385192, 25.570346], [55.2350748, 25.5700834]]]]}}