{"type": "Feature", "properties": {"name": "Al Ain region", "source": "OpenStreetMap relation 13249272 via Nominatim, full detail", "license": "ODbL, (c) OpenStreetMap contributors", "fetched": "2026-10-07"}, "geometry": {"type": "Polygon", "coordinates": [[[54.6535943, 22.6927844], [54.8475478, 22.6687991], [54.8945616, 22.6627371], [54.9473324, 22.6559324], [54.9561544, 22.6548081], [55.0154388, 22.6472525], [55.0472887, 22.6431932], [55.0473809, 22.6431813], [55.0664267, 22.6407339], [55.1373379, 22.6316214], [55.1744402, 22.6730167], [55.1852237, 22.6850456], [55.1878103, 22.6879308], [55.19043, 22.6908998], [55.1907799, 22.6906833], [55.1922363, 22.6923596], [55.1942127, 22.6944611], [55.202898, 22.7040628], [55.2062054, 22.7067635], [55.2080401, 22.7082627], [55.208016, 22.7083856], [55.2080316, 22.7084674], [55.2080932, 22.7085508], [55.2081882, 22.7086151], [55.2083149, 22.7086355], [55.2084353, 22.7086063], [55.2085208, 22.7085537], [55.2085674, 22.7084985], [55.2087692, 22.7085952], [55.2091786, 22.7087913], [55.2108876, 22.7061362], [55.2110553, 22.7058756], [55.2113705, 22.7054225], [55.2128404, 22.7056862], [55.2139936, 22.7165626], [55.2153581, 22.7279054], [55.2160612, 22.7324367], [55.2165628, 22.7354258], [55.2167953, 22.7372286], [55.2170008, 22.738316], [55.2170158, 22.7385403], [55.217512, 22.7420651], [55.2179293, 22.7457293], [55.2186433, 22.753353], [55.2202063, 22.7655556], [55.2270206, 22.7900526], [55.2274029, 22.7912901], [55.2274657, 22.7916128], [55.227459, 22.7918415], [55.2272948, 22.7927001], [55.2236947, 22.8074338], [55.2229855, 22.8168465], [55.2230425, 22.8171452], [55.2231679, 22.8175563], [55.2259725, 22.825001], [55.2258586, 22.8253101], [55.221377, 22.8325797], [55.2186489, 22.8414534], [55.2176712, 22.8508795], [55.2176758, 22.851185], [55.2226695, 22.8594165], [55.2243456, 22.8670179], [55.2253611, 22.8750913], [55.225243, 22.8848823], [55.2229728, 22.8927132], [55.2173343, 22.9002692], [55.2161396, 22.9051257], [55.2150651, 22.9094435], [55.2156745, 22.9185865], [55.2149198, 22.9267062], [55.2132739, 22.9355017], [55.2142122, 22.9445768], [55.2184152, 22.9520523], [55.2172522, 22.9607], [55.2197118, 22.9781908], [55.2170129, 22.9860803], [55.2202048, 22.9945811], [55.2193234, 23.001283], [55.2170644, 23.0096644], [55.2170736, 23.017872], [55.2168, 23.0209558], [55.2162834, 23.0262103], [55.2182473, 23.0333965], [55.2277107, 23.0446444], [55.2297253, 23.0479186], [55.2298645, 23.0481447], [55.2300404, 23.0555853], [55.2270482, 23.0635068], [55.2260831, 23.068392], [55.2253932, 23.0724311], [55.2280942, 23.0780745], [55.2312351, 23.0853734], [55.2302089, 23.0946205], [55.23077, 23.1032047], [55.232271, 23.1103478], [55.236467, 23.1193312], [55.2406148, 23.1260742], [55.2422659, 23.1285133], [55.2506559, 23.1405114], [55.2641914, 23.1578274], [55.2708787, 23.1659653], [55.2806966, 23.1777105], [55.2868528, 23.1880839], [55.2968307, 23.2039837], [55.3046756, 23.2175537], [55.3105013, 23.2276873], [55.3157831, 23.2369685], [55.3182608, 23.2417343], [55.3247766, 23.2535054], [55.3315305, 23.2645215], [55.3347451, 23.2701335], [55.3378674, 23.2757206], [55.342502, 23.2839365], [55.3477551, 23.2928782], [55.3545679, 23.3069407], [55.3598336, 23.3165769], [55.3705163, 23.3360492], [55.3863478, 23.3652568], [55.4015366, 23.3925249], [55.4165065, 23.3821507], [55.4172878, 23.3831115], [55.4306911, 23.3995929], [55.4330332, 23.4034448], [55.4368109, 23.4120195], [55.4472296, 23.4570985], [55.4525876, 23.4652171], [55.4608434, 23.4758958], [55.4653163, 23.4830223], [55.4706829, 23.4900087], [55.4763048, 23.4993128], [55.4832195, 23.5126175], [55.4842238, 23.5139339], [55.4911063, 23.5229549], [55.4981219, 23.5334626], [55.5099762, 23.5427125], [55.522796, 23.5542248], [55.524091, 23.5560915], [55.531805, 23.57302], [55.5347233, 23.5793123], [55.5375568, 23.5833704], [55.5442623, 23.5926679], [55.5501814, 23.5986604], [55.5568419, 23.6056465], [55.5657511, 23.6151194], [55.5709739, 23.6251618], [55.5723085, 23.6296459], [55.5712142, 23.6620727], [55.5698152, 23.6899936], [55.5718837, 23.7028968], [55.5692283, 23.7207336], [55.56288, 23.7310468], [55.5591657, 23.7350147], [55.5451453, 23.746073], [55.5330882, 23.75585], [55.5318694, 23.7572856], [55.5315984, 23.7594868], [55.5315476, 23.7598996], [55.5351331, 23.7687388], [55.5357468, 23.7714409], [55.5315454, 23.8073505], [55.5327063, 23.8240874], [55.5345731, 23.8359292], [55.534852, 23.843466], [55.5337255, 23.8493518], [55.5245802, 23.877058], [55.5198274, 23.8851181], [55.5139029, 23.893321], [55.505852, 23.898616], [55.5014578, 23.9044912], [55.500567, 23.9056822], [55.4997602, 23.9079146], [55.5000455, 23.91581], [55.4998825, 23.9199586], [55.4990263, 23.9237599], [55.4970436, 23.9276179], [55.4851153, 23.9399229], [55.4845316, 23.9421096], [55.4852741, 23.9443845], [55.4907029, 23.9500539], [55.4952262, 23.9535993], [55.5032359, 23.9580426], [55.5214014, 23.9646824], [55.5383568, 23.9724512], [55.5450957, 23.9754103], [55.5531882, 23.9788414], [55.5646937, 23.9837551], [55.5739506, 23.9876448], [55.5763375, 23.9888083], [55.5774801, 23.9894333], [55.5786445, 23.9901713], [55.5799617, 23.9912617], [55.5851038, 23.9966284], [55.5891635, 23.9986603], [55.599431, 24.0040313], [55.6041367, 24.0062355], [55.6156423, 24.0117611], [55.6330938, 24.0202479], [55.6474437, 24.0251663], [55.6594765, 24.0292982], [55.6748875, 24.0343606], [55.6780412, 24.0353965], [55.7067205, 24.0468515], [55.7265697, 24.0559281], [55.7269164, 24.0560866], [55.7312456, 24.0580662], [55.731827, 24.0581492], [55.7323585, 24.058311], [55.7329581, 24.0582404], [55.7334622, 24.0582612], [55.7350203, 24.0584686], [55.7359832, 24.058369], [55.736442, 24.0582695], [55.7369644, 24.0580372], [55.7378001, 24.0572782], [55.73805, 24.0571081], [55.7389039, 24.0567099], [55.7403575, 24.0563117], [55.7411614, 24.0563242], [55.7414204, 24.0563823], [55.7429537, 24.057628], [55.743245, 24.0576509], [55.7519295, 24.0542954], [55.75848, 24.0517644], [55.7805724, 24.0559045], [55.8011255, 24.0254824], [55.804856, 24.0253588], [55.8080493, 24.0252762], [55.8138057, 24.0233386], [55.8200247, 24.0212816], [55.8267941, 24.0178095], [55.8280943, 24.0172314], [55.8331087, 24.0146301], [55.8340589, 24.0156016], [55.8350662, 24.0166315], [55.840493, 24.0192411], [55.8420275, 24.020895], [55.8468926, 24.0221659], [55.8471227, 24.0223412], [55.8473951, 24.0223838], [55.8479009, 24.0223741], [55.8495544, 24.0221717], [55.8517699, 24.0228363], [55.8551595, 24.0225342], [55.8581292, 24.0242384], [55.8646185, 24.0290153], [55.8735969, 24.0327673], [55.8755662, 24.0348735], [55.8764497, 24.0355634], [55.8873164, 24.0398497], [55.8959306, 24.0443259], [55.902317, 24.0469405], [55.9147613, 24.049676], [55.9203183, 24.0507924], [55.9279082, 24.052257], [55.9290001, 24.0524677], [55.9414831, 24.0548852], [55.9537698, 24.059093], [55.9597838, 24.0610616], [55.9685198, 24.0616626], [55.9813377, 24.0624874], [55.9841118, 24.0626659], [56.0173982, 24.0664668], [56.0172055, 24.0673401], [56.0127001, 24.0877561], [56.0142493, 24.0899579], [56.0022287, 24.1117721], [55.9997396, 24.117585], [55.9958901, 24.1236032], [55.9951134, 24.125259], [55.9909109, 24.1299804], [55.9750118, 24.1456711], [55.9740237, 24.1472258], [55.960879, 24.1700753], [55.9607425, 24.1703125], [55.9696731, 24.1823349], [55.969273, 24.184949], [55.9689286, 24.1854169], [55.9669502, 24.1866804], [55.9655855, 24.188029], [55.9647218, 24.1897221], [55.9629108, 24.1949589], [55.959882, 24.1967107], [55.958454, 24.2056658], [55.9585398, 24.2121524], [55.9623048, 24.2162873], [55.9621955, 24.216601], [55.9510419, 24.2135436], [55.9505778, 24.2139816], [55.9544468, 24.2225682], [55.951742, 24.2224185], [55.949813, 24.2215428], [55.9484418, 24.222076], [55.9472847, 24.2219712], [55.8824617, 24.2160977], [55.8710687, 24.2151036], [55.8682384, 24.2143648], [55.8647258, 24.2135282], [55.856941, 24.2115712], [55.8537663, 24.2109117], [55.8506946, 24.209393], [55.8335234, 24.2009021], [55.8333956, 24.2009216], [55.8332089, 24.2009502], [55.8309067, 24.20268], [55.8257983, 24.2051736], [55.824919, 24.2052894], [55.8239094, 24.2057142], [55.823105, 24.2063528], [55.8214691, 24.2071294], [55.8180491, 24.2089771], [55.8154411, 24.2100897], [55.8136342, 24.2109244], [55.8112312, 24.2114128], [55.8101491, 24.2112797], [55.8099048, 24.2107892], [55.8095471, 24.2109512], [55.8094897, 24.2108388], [55.8081614, 24.2120678], [55.8055649, 24.2150644], [55.8001575, 24.2202699], [55.7940281, 24.2224498], [55.7900623, 24.2256823], [55.7891423, 24.2259724], [55.7883752, 24.2265222], [55.7870529, 24.2278882], [55.7834319, 24.2309647], [55.7768546, 24.2347165], [55.7758069, 24.2347302], [55.7733736, 24.2341368], [55.7696336, 24.2331753], [55.7682165, 24.232811], [55.7656924, 24.2321621], [55.7548999, 24.2343801], [55.7528808, 24.234795], [55.753315, 24.2398378], [55.7538663, 24.2462405], [55.7557378, 24.2517338], [55.7570367, 24.2555463], [55.759405, 24.2611417], [55.7659343, 24.2619978], [55.7665849, 24.2620778], [55.7667065, 24.262092], [55.766909, 24.2621191], [55.7669333, 24.2621223], [55.7672365, 24.2621678], [55.7673894, 24.2621908], [55.7676207, 24.2622326], [55.7678993, 24.262294], [55.7680615, 24.2623638], [55.7776815, 24.2690634], [55.7808865, 24.2712805], [55.7825955, 24.2725429], [55.7870353, 24.2759499], [55.7915264, 24.2794175], [55.7911661, 24.2795855], [55.7928922, 24.2828468], [55.802826, 24.3016115], [55.8075685, 24.3107063], [55.8103241, 24.3124694], [55.8124935, 24.3138601], [55.8157208, 24.3159333], [55.824357, 24.321481], [55.8294826, 24.3248239], [55.8339436, 24.3277333], [55.8339905, 24.3490578], [55.834147, 24.3923101], [55.8341762, 24.3976259], [55.8342017, 24.4095538], [55.8277307, 24.4095602], [55.8274088, 24.409868], [55.8267747, 24.4126462], [55.8205021, 24.439823], [55.8202843, 24.440296], [55.7974961, 24.4700071], [55.7854511, 24.4857896], [55.7851484, 24.4863208], [55.7848542, 24.4869361], [55.7679199, 24.5223531], [55.7648711, 24.5294597], [55.764822, 24.5296539], [55.7663947, 24.5546762], [55.7675745, 24.5725798], [55.7779869, 24.5817565], [55.7879668, 24.5906812], [55.8161465, 24.6152938], [55.8012908, 24.6294959], [55.7936952, 24.6367584], [55.7937021, 24.637131], [55.8343224, 24.6692792], [55.8365014, 24.6710308], [55.8365813, 24.671313], [55.8364805, 24.6720041], [55.8361623, 24.674187], [55.8359321, 24.6758084], [55.8351458, 24.6799765], [55.8350052, 24.6843654], [55.8343077, 24.6882921], [55.8326989, 24.6924066], [55.8310779, 24.6961267], [55.8294562, 24.7009636], [55.8290235, 24.7025117], [55.8288607, 24.7033519], [55.8285155, 24.7045295], [55.8283919, 24.7094429], [55.828496, 24.712985], [55.8287202, 24.7169738], [55.8274408, 24.7213266], [55.8272341, 24.7252808], [55.8273119, 24.7300944], [55.8286803, 24.7338825], [55.8283955, 24.7383871], [55.8291164, 24.7402127], [55.8298716, 24.7422804], [55.8311308, 24.7463271], [55.8313584, 24.7509775], [55.8309661, 24.7561282], [55.8317474, 24.7592366], [55.8318856, 24.759956], [55.8319122, 24.7611139], [55.831864, 24.7638533], [55.832557, 24.7672106], [55.8326405, 24.7680893], [55.8326178, 24.771786], [55.8318018, 24.7758004], [55.8316318, 24.7801446], [55.8312191, 24.7806308], [55.8307586, 24.7812096], [55.8290279, 24.7827384], [55.8279379, 24.7834511], [55.8257095, 24.7867248], [55.8232609, 24.7885127], [55.8223377, 24.7896573], [55.820688, 24.7936466], [55.7371034, 24.7572591], [55.7206305, 24.7502659], [55.7051767, 24.7456069], [55.6842782, 24.7393171], [55.6696756, 24.7349199], [55.6645813, 24.73332], [55.6480085, 24.7281122], [55.6217308, 24.7198409], [55.5957999, 24.7119856], [55.5529443, 24.6660607], [55.523362, 24.6505634], [55.5226142, 24.650442], [55.4966014, 24.6466779], [55.3583141, 24.6265455], [55.3345607, 24.6230801], [55.3238504, 24.6260035], [55.2023766, 24.6590639], [55.170739, 24.6940543], [55.145572, 24.6791666], [55.1401511, 24.6812433], [55.1419665, 24.6405219], [55.1421577, 24.6362347], [55.139335, 24.625912], [55.1311051, 24.6086269], [55.1268747, 24.6014186], [55.1233163, 24.5953551], [55.0997848, 24.5455271], [55.0961193, 24.5382613], [55.0859348, 24.5193471], [55.0287247, 24.419895], [55.0344403, 24.4169765], [55.0553144, 24.4144464], [55.0552488, 24.4137539], [55.0546749, 24.4076922], [55.0590804, 24.3914808], [55.0768798, 24.3251036], [55.0881593, 24.3042686], [55.0882711, 24.3029385], [55.091964, 24.2590084], [55.0919814, 24.2588011], [55.095037, 24.2493429], [55.0961009, 24.2456678], [55.0962242, 24.2431198], [55.0959931, 24.233021], [55.0958228, 24.2228793], [55.099212, 24.1929568], [55.098398, 24.1855941], [55.1023279, 24.1857572], [55.1028211, 24.18179], [55.0946409, 24.181475], [55.087368, 24.1812631], [55.0759378, 24.1805927], [55.0729217, 24.1824312], [55.0666338, 24.1842313], [55.0657176, 24.1831994], [55.061684, 24.1844169], [55.0587757, 24.1855057], [55.0544824, 24.1872629], [55.040613, 24.1949239], [55.0370996, 24.1867836], [55.0375372, 24.1853168], [55.0379263, 24.1845431], [55.036332, 24.1827712], [55.0360593, 24.1820018], [55.0364293, 24.1812462], [55.0366351, 24.1808261], [55.0447191, 24.1798804], [55.044589, 24.1787149], [55.0494478, 24.1781757], [55.0476088, 24.1648677], [55.0452717, 24.1635881], [55.0463258, 24.1565394], [55.0465098, 24.1560499], [55.0466378, 24.1557194], [55.0467184, 24.1555114], [55.048797, 24.1553616], [55.050587, 24.1551445], [55.0518803, 24.1549212], [55.0538578, 24.1544026], [55.0563552, 24.1535148], [55.0574869, 24.1530254], [55.0592874, 24.1521047], [55.0614489, 24.150738], [55.0700279, 24.1440623], [55.0736916, 24.1412113], [55.078278, 24.1375504], [55.0795212, 24.1365825], [55.0806047, 24.1358044], [55.0815452, 24.1352644], [55.0830969, 24.1344159], [55.0851679, 24.1336705], [55.0874962, 24.13298], [55.0901594, 24.1326214], [55.1012769, 24.1327361], [55.1027726, 24.1315891], [55.1027012, 24.1287892], [55.10214, 24.1251753], [55.0936282, 24.1011327], [55.0930022, 24.09722], [55.0921631, 24.0771895], [55.0926076, 24.0727908], [55.1045361, 24.0193977], [55.1047338, 24.0149453], [55.1043121, 24.0112999], [55.1033055, 24.0075419], [55.0971272, 23.992442], [55.0964734, 23.9925792], [55.0928396, 23.993342], [55.0864147, 23.9695762], [55.0766722, 23.9390659], [55.0667066, 23.910806], [55.0634076, 23.9018723], [55.0583502, 23.8841898], [55.0456786, 23.8459821], [55.0431041, 23.8331296], [55.0417591, 23.822301], [55.0417543, 23.8222724], [55.0399385, 23.8113471], [55.0315188, 23.7789233], [55.0292995, 23.7660228], [55.0285658, 23.7624982], [55.0277354, 23.7589123], [55.0243568, 23.7496809], [55.0016002, 23.7158983], [54.9949193, 23.7005758], [54.9902087, 23.6828963], [54.9821466, 23.6566136], [54.9712185, 23.6234435], [54.952557, 23.5639256], [54.940936, 23.5431613], [54.940831, 23.5428581], [54.9146366, 23.4671898], [54.8831513, 23.3741987], [54.8568984, 23.296351], [54.8369037, 23.2370301], [54.8125602, 23.1647715], [54.7879784, 23.0917658], [54.7751112, 23.0536048], [54.7551098, 22.9942637], [54.7240485, 22.9020579], [54.6925063, 22.8083605], [54.6898158, 22.8003654], [54.6641843, 22.7241737], [54.6535943, 22.6927844]]]}}