{"type": "Feature", "properties": {"name": "Fujairah City", "source": "OpenStreetMap way 872858707 via Nominatim", "license": "ODbL, (c) OpenStreetMap contributors", "fetched": "2026-10-08"}, "geometry": {"type": "MultiPolygon", "coordinates": [[[[56.2775959, 25.1434713], [56.2857378, 25.1383428], [56.2865111, 25.1376289], [56.286987, 25.1367069], [56.2870762, 25.1355469], [56.2864516, 25.1344762], [56.2850537, 25.1335541], [56.2831501, 25.132067], [56.2821388, 25.1310259], [56.2817522, 25.1293008], [56.2824065, 25.1277244], [56.2827634, 25.1268024], [56.2828824, 25.1259101], [56.2822879, 25.123171], [56.2846925, 25.1227139], [56.2967079, 25.1224281], [56.2967673, 25.1224135], [56.2968129, 25.1218667], [56.2976466, 25.1206832], [56.2977837, 25.1207966], [56.2993772, 25.1194261], [56.2987642, 25.1189949], [56.3007797, 25.117072], [56.3026699, 25.1164368], [56.3038563, 25.1151541], [56.3135777, 25.1057522], [56.316671, 25.102964], [56.3176066, 25.1021207], [56.3454345, 25.1014947], [56.3471919, 25.1009454], [56.3496296, 25.1010409], [56.3536046, 25.0992973], [56.358312, 25.0999499], [56.3600071, 25.1003283], [56.3600904, 25.1003263], [56.3601998, 25.1003336], [56.3603432, 25.100359], [56.3604812, 25.1004025], [56.3605956, 25.100455], [56.3606873, 25.1005095], [56.3607451, 25.1005504], [56.3608123, 25.1006072], [56.360862, 25.1006548], [56.3609498, 25.1007613], [56.3609962, 25.1008337], [56.3610355, 25.1009084], [56.3610673, 25.1009875], [56.3613871, 25.1018919], [56.361902, 25.1031833], [56.361914, 25.1032511], [56.3619087, 25.1033165], [56.3618961, 25.1033594], [56.3618786, 25.1033954], [56.3618496, 25.1034359], [56.3618246, 25.1034607], [56.3617963, 25.1034854], [56.3617512, 25.1035123], [56.3617068, 25.1035301], [56.3616596, 25.1035412], [56.3616168, 25.1035456], [56.3615629, 25.1035431], [56.3615155, 25.1035338], [56.3614701, 25.1035178], [56.361411, 25.1034837], [56.3613685, 25.1034452], [56.3613457, 25.103418], [56.3613202, 25.103375], [56.3613034, 25.1033275], [56.3609991, 25.1020054], [56.3607049, 25.1011282], [56.3606546, 25.1010219], [56.3605872, 25.1009223], [56.3605053, 25.1008316], [56.3604229, 25.1007635], [56.3603584, 25.1007181], [56.3603043, 25.1006862], [56.3601889, 25.1006338], [56.3601132, 25.1006086], [56.3600354, 25.1005903], [56.3600039, 25.1005856], [56.3597297, 25.1005693], [56.3595714, 25.1026995], [56.3595944, 25.102702], [56.3597908, 25.1026933], [56.3601941, 25.1026838], [56.3605512, 25.1026063], [56.3605906, 25.102602], [56.3606303, 25.1026044], [56.3606912, 25.1026204], [56.360719, 25.1026341], [56.3607728, 25.1026773], [56.3607989, 25.1027135], [56.3608167, 25.1027542], [56.3608239, 25.1027903], [56.3608244, 25.1028265], [56.3608158, 25.1028693], [56.3608013, 25.1029031], [56.3607804, 25.1029346], [56.3607542, 25.1029616], [56.3607026, 25.1029953], [56.3606504, 25.1030131], [56.3606191, 25.1030175], [56.3601924, 25.1030021], [56.3597896, 25.1029191], [56.3595557, 25.1029085], [56.3580602, 25.1061252], [56.3583753, 25.1101793], [56.35781, 25.1168766], [56.3578269, 25.1202063], [56.356697, 25.1311672], [56.3565962, 25.1349711], [56.3563995, 25.143324], [56.3567976, 25.1433454], [56.3568461, 25.1454094], [56.3562013, 25.1454183], [56.357273, 25.1588539], [56.3585898, 25.1667126], [56.3668368, 25.1748847], [56.36416, 25.1777103], [56.3586645, 25.1719285], [56.3589613, 25.1781694], [56.3591465, 25.1822687], [56.3590776, 25.1833039], [56.3590288, 25.1848076], [56.3668368, 25.1821718], [56.3686214, 25.1754795], [56.3701086, 25.1763718], [56.3692163, 25.1811308], [56.3766521, 25.1839564], [56.3778419, 25.1876743], [56.3742727, 25.1876743], [56.3712983, 25.1851461], [56.3586197, 25.1932534], [56.3584779, 25.1932524], [56.3517513, 25.1932076], [56.3498097, 25.1931946], [56.3491015, 25.1936182], [56.3487841, 25.1937613], [56.3486877, 25.1938015], [56.3485256, 25.1939069], [56.3484845, 25.193936], [56.3484241, 25.1939877], [56.348317, 25.1941069], [56.3482194, 25.1942103], [56.3480659, 25.1944331], [56.3480391, 25.1944691], [56.3478027, 25.1948271], [56.3477776, 25.1948834], [56.3476163, 25.195289], [56.3474918, 25.1956091], [56.3474097, 25.1959925], [56.345597, 25.1964336], [56.3437755, 25.1969426], [56.3399024, 25.1984767], [56.3385356, 25.1989877], [56.3383203, 25.1981221], [56.3380522, 25.1965676], [56.3378162, 25.1947332], [56.3381282, 25.193881], [56.3393628, 25.192865], [56.3400165, 25.1913145], [56.3400057, 25.1904608], [56.3391296, 25.1905268], [56.337853, 25.190773], [56.3364976, 25.1913966], [56.3359036, 25.1905104], [56.3359712, 25.1893091], [56.3361138, 25.1884981], [56.3363422, 25.1860361], [56.3366505, 25.1858416], [56.3379584, 25.1854836], [56.3388981, 25.185012], [56.3399927, 25.1843031], [56.341444, 25.1836809], [56.3357547, 25.1826727], [56.3376463, 25.1778567], [56.3343102, 25.1774844], [56.333932, 25.1748024], [56.3336433, 25.173729], [56.3312823, 25.1746118], [56.3286164, 25.1773693], [56.326498, 25.1762932], [56.3244054, 25.1787521], [56.3225175, 25.1807927], [56.3207224, 25.1830045], [56.3183719, 25.1838475], [56.3156411, 25.1855426], [56.3128242, 25.1858711], [56.3100096, 25.1857726], [56.3078544, 25.1852503], [56.3048512, 25.1853216], [56.3026001, 25.1851402], [56.3008197, 25.1847049], [56.2988497, 25.1846102], [56.2962552, 25.1839004], [56.2966361, 25.1830579], [56.2969408, 25.1826956], [56.2968308, 25.1818186], [56.2966082, 25.1809376], [56.2967651, 25.180507], [56.2964975, 25.1796808], [56.2957486, 25.1790799], [56.295148, 25.1787189], [56.2940454, 25.1779929], [56.2937857, 25.1777188], [56.293527, 25.1773727], [56.2932977, 25.1770658], [56.2925497, 25.1761701], [56.2919691, 25.1755655], [56.2918342, 25.1749946], [56.2918651, 25.1736198], [56.2917827, 25.1732556], [56.2913857, 25.1728128], [56.290973, 25.1725807], [56.2907959, 25.1724811], [56.2895089, 25.1717787], [56.2886688, 25.170865], [56.2878237, 25.169507], [56.2867254, 25.1680988], [56.2859896, 25.1671488], [56.2843954, 25.1649746], [56.2845254, 25.1647797], [56.2849354, 25.1648885], [56.284221, 25.1621563], [56.2843832, 25.1582637], [56.2810277, 25.1538297], [56.2798419, 25.1522627], [56.2801663, 25.1488568], [56.2775959, 25.1434713]]]]}}