{"type": "Feature", "properties": {"name": "Islamabad Capital Territory", "source": "OpenStreetMap relation 358002 via Nominatim, simplified (polygon_threshold=0.0005)", "license": "ODbL, (c) OpenStreetMap contributors", "fetched": "2026-10-03"}, "geometry": {"type": "Polygon", "coordinates": [[[72.8175952, 33.701649], [72.8764218, 33.6224429], [72.8780152, 33.6243707], [72.8805248, 33.6232093], [72.8819779, 33.6198812], [72.8906973, 33.6066742], [72.9075314, 33.5862613], [72.9123039, 33.5811424], [72.917905, 33.5797705], [72.9175739, 33.578224], [72.9224914, 33.5774598], [72.9224751, 33.5784592], [72.9232079, 33.5785994], [72.9257426, 33.5761891], [72.9268173, 33.5764061], [72.9275664, 33.5789566], [72.9272353, 33.5821898], [72.9283208, 33.583076], [72.9295049, 33.5836709], [72.9306232, 33.5820688], [72.9815156, 33.608729], [72.9786559, 33.6123027], [72.9771365, 33.6119381], [72.9750039, 33.6161637], [72.9740716, 33.6216576], [72.9755085, 33.6227393], [72.9742558, 33.6233286], [72.9752404, 33.6247281], [72.9734713, 33.6253312], [72.9747528, 33.6268529], [72.9772284, 33.6267149], [72.9830814, 33.628536], [72.9891242, 33.6285864], [72.9915762, 33.6296078], [72.9996744, 33.6188675], [72.9940304, 33.6151948], [73.0800008, 33.660362], [73.0848461, 33.6632796], [73.0855354, 33.6644781], [73.1289586, 33.6060735], [73.1377482, 33.5937876], [73.136157, 33.5923739], [73.1398364, 33.5888788], [73.1390815, 33.585441], [73.1323658, 33.5823247], [73.1314255, 33.5787846], [73.1278338, 33.5790114], [73.1245608, 33.5774404], [73.1187853, 33.5772306], [73.1202703, 33.5755525], [73.1228625, 33.5697164], [73.1195377, 33.5674696], [73.1226381, 33.5637231], [73.1238659, 33.5606563], [73.1212077, 33.5601837], [73.1197524, 33.5617288], [73.1172445, 33.5617245], [73.1200032, 33.5587422], [73.1178086, 33.5568714], [73.1126729, 33.5616811], [73.1118185, 33.5572385], [73.1125067, 33.5554361], [73.1117559, 33.5546169], [73.1058186, 33.5540546], [73.1003774, 33.5511703], [73.1055311, 33.5441453], [73.1034452, 33.542642], [73.1052541, 33.5400504], [73.1038093, 33.5364748], [73.1077164, 33.5321613], [73.1087902, 33.5296725], [73.1084507, 33.5245444], [73.1058945, 33.5231988], [73.099583, 33.5240852], [73.1008308, 33.5325741], [73.0985045, 33.534137], [73.0966359, 33.534069], [73.0921148, 33.5307708], [73.0877631, 33.5297307], [73.0856249, 33.5281991], [73.0850355, 33.526955], [73.0851798, 33.5193129], [73.0844488, 33.517664], [73.0822847, 33.5144855], [73.0769778, 33.5120364], [73.0773941, 33.5110645], [73.0842054, 33.5038149], [73.0835275, 33.503676], [73.084586, 33.5007138], [73.0872939, 33.5014279], [73.0890027, 33.4995633], [73.0914608, 33.4992292], [73.0935121, 33.5001619], [73.0946512, 33.5025128], [73.1002742, 33.5037634], [73.1019957, 33.5016398], [73.1054532, 33.5013628], [73.1058532, 33.5003848], [73.1125648, 33.5020751], [73.1152057, 33.5001367], [73.1184595, 33.4949748], [73.1221859, 33.4939863], [73.1223718, 33.4922161], [73.1230458, 33.4958082], [73.1341708, 33.492733], [73.1855026, 33.4949622], [73.1855374, 33.4902125], [73.1860582, 33.4907044], [73.1875603, 33.4889958], [73.1888234, 33.4889142], [73.1863805, 33.4854777], [73.1888522, 33.4848225], [73.1969637, 33.4872416], [73.1965494, 33.4962452], [73.2055212, 33.4929121], [73.2092561, 33.4977665], [73.2131224, 33.4991608], [73.2156358, 33.5019921], [73.2238467, 33.5161356], [73.2284387, 33.5194515], [73.2329257, 33.5160768], [73.2358464, 33.5189939], [73.2361832, 33.5159008], [73.2469914, 33.5159595], [73.247112, 33.520226], [73.2497411, 33.5201506], [73.2505706, 33.5230381], [73.2597299, 33.5367664], [73.2581576, 33.541431], [73.2676658, 33.5486161], [73.2720775, 33.5539738], [73.2713745, 33.5557469], [73.2727069, 33.5561946], [73.2805357, 33.5694311], [73.2794497, 33.569614], [73.279098, 33.5714315], [73.2869564, 33.577773], [73.2967356, 33.5841742], [73.2950405, 33.586373], [73.2939267, 33.5861793], [73.2935296, 33.5868409], [73.2944332, 33.5875538], [73.2934538, 33.5885262], [73.2907827, 33.5882937], [73.2901104, 33.5949668], [73.2933592, 33.6019856], [73.3011543, 33.608098], [73.2994463, 33.6130304], [73.2998045, 33.6160873], [73.2985919, 33.6175613], [73.2987823, 33.6295616], [73.3002486, 33.6355164], [73.2960363, 33.6366235], [73.2955973, 33.6378232], [73.2970077, 33.64012], [73.2976801, 33.6437986], [73.302565, 33.647599], [73.3006036, 33.6511623], [73.3010799, 33.6541973], [73.3036671, 33.655722], [73.3060114, 33.6603934], [73.3140777, 33.6673674], [73.3165256, 33.6715116], [73.3245562, 33.6741136], [73.3243782, 33.6751604], [73.3205771, 33.6780052], [73.3204146, 33.6791598], [73.3234447, 33.6808262], [73.3235995, 33.6819928], [73.3231678, 33.6840507], [73.3197333, 33.6870973], [73.3208699, 33.6913523], [73.3269784, 33.698572], [73.3292003, 33.6986419], [73.3295505, 33.7016136], [73.3305914, 33.7022826], [73.3294532, 33.7039121], [73.3387837, 33.7078272], [73.3423647, 33.7138334], [73.3439214, 33.7143609], [73.3447088, 33.7154972], [73.3423819, 33.7212594], [73.3545252, 33.730465], [73.3645349, 33.7342564], [73.3691567, 33.7349247], [73.369586, 33.736179], [73.3676541, 33.7400111], [73.3686607, 33.7447647], [73.3742381, 33.7482517], [73.3742245, 33.7499687], [73.3731769, 33.7511787], [73.3748776, 33.7552146], [73.3731073, 33.7569167], [73.3679296, 33.7570756], [73.3656129, 33.7582167], [73.367243, 33.7616311], [73.366011, 33.7629635], [73.3617011, 33.7629742], [73.3621461, 33.7652555], [73.3534025, 33.7686178], [73.3529858, 33.7706104], [73.3513758, 33.771842], [73.3459161, 33.7717209], [73.3456745, 33.7727216], [73.3470826, 33.7742575], [73.3449903, 33.7785211], [73.3427375, 33.7805], [73.3405098, 33.7812283], [73.333863, 33.7882022], [73.3244149, 33.7896704], [73.3209526, 33.7880939], [73.3152048, 33.7907925], [73.3095279, 33.7966241], [73.300602, 33.7983409], [73.2877794, 33.8028066], [73.2839278, 33.8000046], [73.2777373, 33.7974777], [73.2449121, 33.7904859], [73.2396181, 33.7917267], [73.2215903, 33.7913501], [73.2010816, 33.7861426], [73.1721239, 33.7886885], [73.1452069, 33.8032755], [73.056267, 33.780769], [73.011604, 33.76252], [72.960533, 33.736019], [72.933067, 33.733578], [72.931862, 33.747837], [72.9199795, 33.7498534], [72.9070765, 33.753542], [72.9007147, 33.7494991], [72.8938697, 33.7320126], [72.8880761, 33.7271407], [72.8690003, 33.7229825], [72.8588723, 33.7231253], [72.8544091, 33.720698], [72.8438638, 33.7126626], [72.8175952, 33.701649]]]}}