{"type": "Feature", "properties": {"name": "Ras Al Khaimah (main part of the emirate)", "source": "OpenStreetMap relation 3766485 via Nominatim; only the part containing the city", "license": "ODbL, (c) OpenStreetMap contributors", "fetched": "2026-10-08"}, "geometry": {"type": "MultiPolygon", "coordinates": [[[[55.5986524, 25.8530661], [55.7462898, 25.6598071], [55.7477525, 25.6581505], [55.7480342, 25.6578314], [55.8291152, 25.5646662], [55.8297249, 25.5018602], [55.835835, 25.4663157], [55.8709261, 25.4131994], [55.8677906, 25.3786283], [55.8768842, 25.3262227], [55.8982194, 25.3290109], [55.90416, 25.3452372], [55.8942398, 25.3547183], [55.8959621, 25.3629678], [55.9190061, 25.3692171], [55.9366789, 25.3906196], [55.9448153, 25.3617398], [55.9786438, 25.3618005], [55.9947477, 25.3918838], [56.0079658, 25.3890386], [56.0145447, 25.3633296], [56.0151369, 25.3569506], [56.015995, 25.347706], [56.0131238, 25.3418084], [56.0267299, 25.3422354], [56.0328161, 25.3393304], [56.0394851, 25.3361471], [56.0300541, 25.3237413], [56.0248233, 25.3204217], [56.0201462, 25.3178195], [56.0202678, 25.3027111], [56.0556163, 25.307328], [56.0924783, 25.3251047], [56.1192482, 25.3537714], [56.1454568, 25.3739434], [56.1465374, 25.3928032], [56.1308288, 25.4077181], [56.1112901, 25.3924757], [56.1080532, 25.3906515], [56.1078451, 25.3905342], [56.1076915, 25.3904476], [56.0870821, 25.3788318], [56.0824406, 25.3762156], [56.0662802, 25.3848864], [56.0645017, 25.4068063], [56.0879158, 25.4193251], [56.1158522, 25.4290553], [56.1269537, 25.452515], [56.1160787, 25.4726714], [56.1153566, 25.4880388], [56.1025255, 25.4935759], [56.0929683, 25.4977], [56.0800147, 25.488341], [56.0639594, 25.476982], [56.033463, 25.4636258], [56.02382, 25.464942], [56.0028288, 25.467807], [56.0086479, 25.4880404], [56.0045844, 25.4928348], [55.9960955, 25.50285], [55.9813751, 25.529065], [55.9698463, 25.5582248], [55.9760816, 25.5831228], [56.0050735, 25.5862469], [56.037303, 25.5879246], [56.0484489, 25.6055419], [56.0549842, 25.6298564], [56.0562005, 25.6343811], [56.0910762, 25.6356983], [56.0943128, 25.6367697], [56.1085865, 25.6414947], [56.122959, 25.6462523], [56.1432536, 25.6628626], [56.1444523, 25.6638436], [56.1472206, 25.6661091], [56.1522326, 25.6639729], [56.1608698, 25.6602914], [56.1586417, 25.6616369], [56.1570711, 25.663616], [56.1565423, 25.665367], [56.1561669, 25.6686358], [56.1567972, 25.6737665], [56.1574297, 25.6789151], [56.157466, 25.6829496], [56.1584414, 25.6873749], [56.1588783, 25.6898365], [56.1588841, 25.6899434], [56.1625001, 25.7044233], [56.1677018, 25.7252497], [56.1598469, 25.7520201], [56.1564815, 25.7634878], [56.1563954, 25.7656291], [56.1559765, 25.7765362], [56.1548077, 25.7875843], [56.1538684, 25.7898592], [56.152778, 25.7925], [56.150278, 25.796944], [56.147778, 25.801389], [56.145278, 25.805833], [56.144444, 25.811389], [56.142778, 25.816389], [56.1399014, 25.821245], [56.14, 25.826944], [56.1440782, 25.8309601], [56.1463982, 25.834412], [56.1508966, 25.841025], [56.151012, 25.844856], [56.151576, 25.8472194], [56.1531056, 25.8496138], [56.1563957, 25.8519966], [56.1586334, 25.8545726], [56.1628238, 25.8586278], [56.164609, 25.8653206], [56.1645731, 25.8661705], [56.161931, 25.8683841], [56.1596113, 25.8753882], [56.1612138, 25.8787122], [56.1615572, 25.8791466], [56.1619132, 25.8794108], [56.162793, 25.8801155], [56.16366, 25.8812316], [56.1643063, 25.8817779], [56.1649689, 25.8829401], [56.1658427, 25.8844612], [56.1660204, 25.8854401], [56.1668894, 25.8859903], [56.1677614, 25.8858889], [56.1689064, 25.8872837], [56.1710414, 25.8885675], [56.1715457, 25.8895327], [56.1723213, 25.889835], [56.1722967, 25.8902952], [56.1731765, 25.8906523], [56.1743459, 25.8907295], [56.1747322, 25.8910384], [56.1749253, 25.8916368], [56.1759445, 25.89238], [56.1771218, 25.8924814], [56.1773769, 25.8925575], [56.1775995, 25.892683], [56.177747, 25.892905], [56.1778936, 25.8932334], [56.1781306, 25.8938991], [56.1785168, 25.894512], [56.1787421, 25.8956316], [56.1782808, 25.8972144], [56.1789782, 25.8979769], [56.1790962, 25.8989709], [56.1783773, 25.8996562], [56.1785275, 25.9007613], [56.1791605, 25.9008529], [56.1794556, 25.9012293], [56.1788119, 25.9025419], [56.1790908, 25.9031113], [56.178844, 25.9036228], [56.1793698, 25.9046554], [56.1789835, 25.9054082], [56.1787582, 25.9063154], [56.1792089, 25.9067367], [56.1798447, 25.90671], [56.1803649, 25.9077533], [56.1797372, 25.9079753], [56.1794019, 25.9083613], [56.1797045, 25.9090609], [56.1797789, 25.9098373], [56.1787494, 25.9110206], [56.1788999, 25.9118668], [56.1782474, 25.9126171], [56.1783425, 25.9133215], [56.1773537, 25.9142783], [56.1769745, 25.9144747], [56.177173, 25.9156134], [56.1769906, 25.9161297], [56.1773266, 25.9168655], [56.1772546, 25.9183875], [56.1770791, 25.9192345], [56.1768324, 25.9191211], [56.1764013, 25.9184096], [56.1756834, 25.9179211], [56.1749498, 25.9182707], [56.1745636, 25.9187146], [56.1741448, 25.9185904], [56.1736888, 25.9187158], [56.1732329, 25.918904], [56.1727251, 25.9188876], [56.1728252, 25.9191308], [56.1729512, 25.9196736], [56.1729432, 25.9200764], [56.1728645, 25.9206819], [56.173029, 25.9209931], [56.1731953, 25.921051], [56.1736459, 25.9222234], [56.1738337, 25.9223055], [56.1740832, 25.9229175], [56.1727526, 25.9267992], [56.1722622, 25.9292371], [56.1706851, 25.9302406], [56.1691115, 25.9328872], [56.1669718, 25.9375836], [56.1655835, 25.9381909], [56.1655835, 25.9390978], [56.1646754, 25.9409634], [56.1631728, 25.9422293], [56.1644112, 25.9440733], [56.1645781, 25.9445594], [56.1646397, 25.9453071], [56.1646418, 25.9458667], [56.1644066, 25.9463167], [56.1644395, 25.9471509], [56.1659368, 25.9477823], [56.16664, 25.948067], [56.1670594, 25.9480551], [56.168044, 25.947847], [56.1707178, 25.9468196], [56.1756408, 25.9505878], [56.1767395, 25.950966], [56.1778059, 25.9513282], [56.178886, 25.9522543], [56.1792469, 25.9524751], [56.1795687, 25.952627], [56.1799657, 25.9527018], [56.1804375, 25.9527527], [56.180415, 25.9529573], [56.180354, 25.953513], [56.1829648, 25.9586259], [56.1850888, 25.9610151], [56.1852982, 25.9624075], [56.1858072, 25.9636679], [56.1863054, 25.9684976], [56.1867252, 25.9689169], [56.1881108, 25.9691765], [56.1913214, 25.9720486], [56.1931565, 25.9746084], [56.1945168, 25.9769546], [56.1950437, 25.9781952], [56.1955132, 25.9793008], [56.1886931, 25.9831524], [56.1885504, 25.9832928], [56.1877859, 25.9862143], [56.1876296, 25.9866302], [56.1874325, 25.9869956], [56.1872178, 25.9872294], [56.1870516, 25.9874103], [56.186145, 25.9879865], [56.1854007, 25.9885921], [56.184584, 25.9894114], [56.1838705, 25.9900431], [56.1825482, 25.9909135], [56.1820198, 25.991351], [56.1814863, 25.9923259], [56.1811025, 25.9931182], [56.1808959, 25.9938487], [56.1806653, 25.9943647], [56.1803005, 25.9949794], [56.1798908, 25.9955137], [56.1807943, 25.9956721], [56.180955, 25.9957003], [56.1810408, 25.9957244], [56.1811695, 25.9957895], [56.1814619, 25.996045], [56.1817677, 25.9965489], [56.1820547, 25.9971733], [56.1821056, 25.9975084], [56.182119, 25.9979833], [56.181832, 25.9981955], [56.1815712, 25.9985527], [56.1811347, 25.9998396], [56.1807495, 26.0030125], [56.1817618, 26.0058557], [56.1822767, 26.0145666], [56.1822996, 26.0149534], [56.1820047, 26.0151724], [56.1785668, 26.0177252], [56.1746125, 26.0220747], [56.1725879, 26.0253438], [56.1703735, 26.0304178], [56.1687443, 26.0355343], [56.1647742, 26.0408353], [56.1625523, 26.048073], [56.1632799, 26.0531887], [56.1619197, 26.0563433], [56.15912, 26.0621265], [56.1566683, 26.0639736], [56.1555595, 26.0678304], [56.1535744, 26.0694075], [56.1531869, 26.0695283], [56.1520718, 26.0691304], [56.1509196, 26.068863], [56.1489884, 26.069075], [56.146446, 26.0683177], [56.1463996, 26.0683267], [56.1439943, 26.0687937], [56.1433617, 26.0685237], [56.1429662, 26.0675718], [56.1420991, 26.0671128], [56.1388291, 26.0624322], [56.1354472, 26.0573207], [56.1327865, 26.0558171], [56.1283233, 26.0567424], [56.1259844, 26.0553159], [56.1242249, 26.0531954], [56.1229803, 26.0512098], [56.1202337, 26.0511713], [56.1164572, 26.0506315], [56.109462, 26.0545063], [56.1075952, 26.0554123], [56.1067154, 26.0553737], [56.1056854, 26.0542171], [56.1028017, 26.0532952], [56.1010207, 26.0537771], [56.0991324, 26.0533916], [56.0975875, 26.052447], [56.0949053, 26.0505578], [56.0906112, 26.0507697], [56.0897168, 26.0509467], [56.0883444, 26.0507282], [56.0879755, 26.0506738], [56.0878499, 26.0506553], [56.0877858, 26.0506456], [56.0877328, 26.0506375], [56.0864462, 26.0504437], [56.0864248, 26.0504405], [56.0857173, 26.0508024], [55.8883688, 26.1517219], [55.8876654, 26.1507447], [55.8755102, 26.1257369], [55.8677437, 26.1005108], [55.8579202, 26.087723], [55.8448751, 26.066315], [55.831961, 26.0341296], [55.8265967, 26.0070053], [55.8037644, 25.9713839], [55.8008499, 25.9634275], [55.7736012, 25.9338617], [55.7681697, 25.9259806], [55.7333187, 25.9221007], [55.7116406, 25.9164583], [55.6983993, 25.9123554], [55.6660938, 25.8977514], [55.6422752, 25.882438], [55.632183, 25.8749691], [55.6255825, 25.8685122], [55.6135212, 25.8625535], [55.5986524, 25.8530661]]]]}}