{"type": "Feature", "properties": {"name": "Sharjah city", "source": "OpenStreetMap relation 12905785 via Nominatim, full detail", "license": "ODbL, (c) OpenStreetMap contributors", "fetched": "2026-10-07"}, "geometry": {"type": "Polygon", "coordinates": [[[55.3490689, 25.3129421], [55.3497234, 25.3122748], [55.3505238, 25.3114583], [55.3625783, 25.2991258], [55.363104, 25.2986309], [55.3637609, 25.297961], [55.3722251, 25.2969095], [55.377178, 25.2978644], [55.3863509, 25.3026116], [55.4067768, 25.2948455], [55.4125931, 25.2926522], [55.4154512, 25.2915845], [55.4196743, 25.2899938], [55.4217341, 25.2892076], [55.424529, 25.2881421], [55.4266553, 25.2873194], [55.427893, 25.2868713], [55.4310731, 25.2856039], [55.4317439, 25.2853424], [55.4350436, 25.2840492], [55.4370668, 25.2832821], [55.4409914, 25.2818207], [55.4437692, 25.2806036], [55.4563353, 25.2759303], [55.4566257, 25.2758169], [55.4581877, 25.2751384], [55.4610351, 25.2740588], [55.4610747, 25.2740438], [55.4648383, 25.2726168], [55.4726225, 25.2696649], [55.483236, 25.2656331], [55.4833581, 25.2655867], [55.5122533, 25.2546095], [55.5645674, 25.2347699], [55.6293374, 25.2101302], [55.6365247, 25.2071799], [55.6378051, 25.2098977], [55.642394, 25.2194659], [55.6476983, 25.2308943], [55.6553205, 25.2470056], [55.6562878, 25.2491176], [55.65835, 25.2533489], [55.6708498, 25.2800093], [55.6710476, 25.2804287], [55.6711061, 25.2805527], [55.6965851, 25.3311955], [55.7118849, 25.3568424], [55.7434648, 25.4191729], [55.7417888, 25.4190792], [55.7243723, 25.4180983], [55.7163953, 25.4176482], [55.7109483, 25.41734], [55.7097105, 25.4172667], [55.707969, 25.4171602], [55.7028511, 25.41686], [55.6973604, 25.4165346], [55.6962915, 25.4164765], [55.69445, 25.4163621], [55.6918419, 25.4171102], [55.6726268, 25.4219555], [55.6610173, 25.4266233], [55.6580013, 25.428232], [55.6546881, 25.4293066], [55.6413959, 25.432078], [55.628758, 25.4142195], [55.6292323, 25.4135475], [55.6299328, 25.4122687], [55.6300431, 25.4116597], [55.6295938, 25.4096576], [55.6008401, 25.3767158], [55.6003661, 25.3761762], [55.5948639, 25.3698975], [55.5934003, 25.3687467], [55.5924759, 25.3683217], [55.5911329, 25.3679855], [55.5889724, 25.3677759], [55.5832351, 25.367224], [55.5827626, 25.3671807], [55.5745799, 25.366421], [55.5595844, 25.3650267], [55.555067, 25.3646065], [55.5388843, 25.3630809], [55.5382006, 25.362955], [55.5326957, 25.3619504], [55.5163735, 25.3589349], [55.5158118, 25.3588309], [55.5113316, 25.3580038], [55.5054208, 25.3569123], [55.5050756, 25.35685], [55.5006827, 25.3560654], [55.5001267, 25.3560489], [55.4998242, 25.3560395], [55.4992683, 25.3560216], [55.4980164, 25.356233], [55.4970096, 25.3566908], [55.4937628, 25.3581668], [55.4935767, 25.3582581], [55.4919329, 25.3590641], [55.4855196, 25.3622094], [55.4801813, 25.3648278], [55.4584199, 25.3754924], [55.4576753, 25.3758614], [55.4570386, 25.3762383], [55.4476874, 25.3816935], [55.4449025, 25.3833181], [55.4424238, 25.3847632], [55.4391831, 25.3866616], [55.4363521, 25.3883084], [55.4337163, 25.3898506], [55.4322377, 25.3907109], [55.4316973, 25.3910253], [55.4316511, 25.3910521], [55.4295657, 25.3922593], [55.429341, 25.3924786], [55.4292199, 25.3927498], [55.4292465, 25.3930206], [55.4291, 25.3930995], [55.4284234, 25.3932219], [55.4277612, 25.3932973], [55.4276549, 25.3932981], [55.4273193, 25.3936005], [55.426953, 25.3941343], [55.4249751, 25.3964959], [55.42344, 25.398313], [55.423412, 25.3983385], [55.4232764, 25.398263], [55.4231261, 25.3983498], [55.4230526, 25.3984002], [55.4228415, 25.3985578], [55.4225873, 25.3987882], [55.4224602, 25.3988525], [55.4223629, 25.3988575], [55.422271, 25.3988419], [55.422135, 25.3987843], [55.4220301, 25.3986625], [55.422019, 25.3986257], [55.4220227, 25.3985937], [55.4220379, 25.3985645], [55.4220629, 25.3985416], [55.4220948, 25.3985276], [55.4221123, 25.3985244], [55.4221477, 25.3985263], [55.4221647, 25.3985312], [55.4221946, 25.3985485], [55.4222726, 25.3986162], [55.422338, 25.3986455], [55.4223945, 25.3986521], [55.4225876, 25.3985886], [55.4227288, 25.3984983], [55.4230473, 25.3982869], [55.4229464, 25.3979703], [55.4228468, 25.3977977], [55.4226728, 25.3975798], [55.4223572, 25.3973615], [55.4221698, 25.3975389], [55.4220835, 25.3975638], [55.4220029, 25.3975328], [55.4219806, 25.397507], [55.4219933, 25.3974688], [55.4220931, 25.3974424], [55.4221198, 25.397416], [55.4220967, 25.3973675], [55.4220492, 25.3973191], [55.4219412, 25.3972744], [55.4216599, 25.3972261], [55.421335, 25.3972381], [55.421179, 25.3973578], [55.4212119, 25.3974113], [55.4211472, 25.3975096], [55.4213125, 25.3979225], [55.4213474, 25.3979848], [55.4215935, 25.3980639], [55.421588, 25.3980839], [55.4215762, 25.3981038], [55.421554, 25.3981141], [55.4215129, 25.3981175], [55.4213558, 25.3980633], [55.4212464, 25.3979837], [55.4211082, 25.3976927], [55.4210174, 25.397471], [55.4210158, 25.3974376], [55.4210193, 25.3974061], [55.4210335, 25.397367], [55.4214775, 25.3968324], [55.4215131, 25.3967635], [55.4214653, 25.396646], [55.4209249, 25.3959387], [55.4206034, 25.3955481], [55.4197774, 25.3946983], [55.419329, 25.3943739], [55.418733, 25.3940492], [55.4182908, 25.3939891], [55.4178073, 25.3940667], [55.4175173, 25.394256], [55.417824, 25.3948579], [55.4177326, 25.3949459], [55.4176203, 25.3949024], [55.417166, 25.3940264], [55.4178393, 25.3935808], [55.417673, 25.3932019], [55.4174624, 25.3929221], [55.4170408, 25.3924151], [55.4168434, 25.3921344], [55.4165315, 25.3918023], [55.416242, 25.3915058], [55.4156106, 25.3911544], [55.4154622, 25.3910942], [55.4149656, 25.3910256], [55.4145654, 25.3911131], [55.4144024, 25.3912393], [55.4146009, 25.3915431], [55.4146972, 25.3916766], [55.4145913, 25.3918006], [55.414503, 25.3917667], [55.4143406, 25.3915102], [55.4140222, 25.3909649], [55.4131761, 25.3902621], [55.4130071, 25.3901854], [55.4122847, 25.3902278], [55.412237, 25.3901912], [55.4122284, 25.3901493], [55.4122697, 25.3901093], [55.4123219, 25.3900956], [55.4130125, 25.3900744], [55.4131828, 25.3900225], [55.4133377, 25.3899418], [55.413534, 25.38976], [55.4136465, 25.3896487], [55.4136939, 25.3895646], [55.4136629, 25.3895449], [55.4135761, 25.3894895], [55.4118332, 25.3885764], [55.4117043, 25.3885311], [55.4115643, 25.3887095], [55.4114062, 25.3888637], [55.4112658, 25.3890582], [55.4111668, 25.3892706], [55.4111421, 25.3894107], [55.41114, 25.3894907], [55.4111544, 25.3896268], [55.4110821, 25.3897848], [55.4109765, 25.3899242], [55.4115998, 25.3905787], [55.4118624, 25.3908085], [55.4120738, 25.3909302], [55.4122527, 25.3911256], [55.4122228, 25.3912041], [55.4121775, 25.391249], [55.4120813, 25.3912623], [55.4120211, 25.3912402], [55.4119066, 25.3911482], [55.4113179, 25.3905184], [55.410646, 25.3898183], [55.4102718, 25.3894198], [55.41009, 25.3895997], [55.4097772, 25.3899929], [55.4096996, 25.3899921], [55.4096634, 25.3899511], [55.4096695, 25.3898866], [55.4101475, 25.389328], [55.4101775, 25.3892424], [55.4101883, 25.3890203], [55.4100984, 25.3888569], [55.4095545, 25.3883418], [55.4087095, 25.3874984], [55.4075744, 25.3866383], [55.4071426, 25.3866436], [55.4067721, 25.3867952], [55.4065538, 25.3863375], [55.4063686, 25.3864448], [55.4061195, 25.3860804], [55.404321, 25.3844708], [55.4037326, 25.384069], [55.403406, 25.3840068], [55.4030326, 25.3840134], [55.4027631, 25.3841238], [55.402651, 25.383859], [55.4025034, 25.3837257], [55.4023504, 25.3837949], [55.4021872, 25.3839068], [55.4020064, 25.3839941], [55.4019196, 25.384016], [55.4018719, 25.383949], [55.4018262, 25.3838552], [55.4017402, 25.3836869], [55.4016139, 25.3834989], [55.4014756, 25.3832778], [55.4012772, 25.3830274], [55.4012174, 25.3828572], [55.4010963, 25.3825571], [55.4009319, 25.3821969], [55.400478, 25.381687], [55.4002841, 25.3814947], [55.4000846, 25.3813703], [55.3998761, 25.3812892], [55.3996793, 25.3812417], [55.3995195, 25.3812059], [55.3993804, 25.3812217], [55.3991935, 25.3812267], [55.398922, 25.3812755], [55.3988153, 25.3812983], [55.3987188, 25.3813339], [55.3986048, 25.3813986], [55.3985461, 25.381313], [55.3986489, 25.380962], [55.3976633, 25.3802917], [55.3969887, 25.3798042], [55.3964896, 25.379364], [55.3960864, 25.3790324], [55.3955634, 25.3786134], [55.3955484, 25.3785607], [55.3956179, 25.3784731], [55.3956603, 25.3784497], [55.3957077, 25.3784454], [55.3957262, 25.378436], [55.3957399, 25.3783956], [55.3957407, 25.3783335], [55.3957156, 25.37824], [55.395573, 25.3780856], [55.3953882, 25.3779474], [55.395239, 25.3778933], [55.3951546, 25.3778877], [55.3950957, 25.3778917], [55.3950771, 25.3779058], [55.3950633, 25.3779558], [55.3950679, 25.3780084], [55.3950489, 25.3780536], [55.3950197, 25.3780772], [55.3949631, 25.3780814], [55.3948821, 25.3780399], [55.3946742, 25.3778584], [55.3940469, 25.3773738], [55.3932099, 25.3766433], [55.3931971, 25.3766121], [55.3933139, 25.3765298], [55.3933964, 25.3764566], [55.393439, 25.3764141], [55.3934583, 25.3763522], [55.3934151, 25.376237], [55.3933006, 25.3761474], [55.3930371, 25.3759893], [55.3926108, 25.3758174], [55.3920583, 25.3756441], [55.3916256, 25.3755534], [55.3914315, 25.3755202], [55.3913671, 25.3755195], [55.3913299, 25.3755454], [55.3909093, 25.3761332], [55.3908899, 25.3762118], [55.3904588, 25.3767971], [55.3898823, 25.3776365], [55.3897575, 25.3776303], [55.3896767, 25.3775793], [55.3896407, 25.3775144], [55.3896389, 25.377457], [55.3897138, 25.3773551], [55.3897672, 25.3773647], [55.389822, 25.37733], [55.3902127, 25.3768183], [55.3916693, 25.3748397], [55.3922959, 25.3739818], [55.3923202, 25.3739319], [55.392334, 25.3738819], [55.3923244, 25.3738149], [55.3922741, 25.3736423], [55.3921486, 25.3733925], [55.3921914, 25.3733381], [55.3921996, 25.3733143], [55.3917704, 25.3729584], [55.3914817, 25.3727259], [55.3910891, 25.3725903], [55.3907067, 25.3724714], [55.3903801, 25.3724131], [55.3902302, 25.3724232], [55.3901984, 25.372442], [55.3898531, 25.3742871], [55.3897707, 25.3742599], [55.3897662, 25.3742025], [55.3899799, 25.3725447], [55.3904229, 25.3692865], [55.3904332, 25.3689092], [55.3903989, 25.3681229], [55.3903345, 25.367826], [55.3902921, 25.3676512], [55.3901964, 25.3674016], [55.3901214, 25.367236], [55.3898279, 25.3667718], [55.3895811, 25.366392], [55.3880373, 25.3644], [55.3864692, 25.3623998], [55.3837583, 25.360314], [55.3835064, 25.3601074], [55.3831705, 25.3598406], [55.3826996, 25.3594691], [55.3824764, 25.3592957], [55.3822425, 25.3591112], [55.3817448, 25.3587228], [55.3814887, 25.3585271], [55.3813291, 25.3583938], [55.3812915, 25.3583638], [55.3812717, 25.3583492], [55.3812483, 25.358335], [55.3812218, 25.3583202], [55.3811811, 25.3582999], [55.3806012, 25.3580823], [55.3803232, 25.3579802], [55.380035, 25.3578697], [55.3797911, 25.3577697], [55.3795615, 25.357683], [55.3792617, 25.3575752], [55.3791571, 25.3575385], [55.3790739, 25.357509], [55.3790096, 25.3574821], [55.3789614, 25.3574622], [55.3789161, 25.3574358], [55.3788797, 25.3574042], [55.3788152, 25.3573399], [55.3787769, 25.3572988], [55.37873, 25.3572552], [55.3786911, 25.3572164], [55.3786686, 25.3571879], [55.3786461, 25.3571584], [55.3786254, 25.3571123], [55.3786123, 25.357081], [55.3785999, 25.3570474], [55.37858, 25.3569885], [55.378516, 25.3568121], [55.3784466, 25.3566032], [55.3784028, 25.3564869], [55.3783541, 25.3563489], [55.3782925, 25.3561787], [55.3783257, 25.3561699], [55.3782844, 25.3560452], [55.3782551, 25.356053], [55.378211, 25.3559106], [55.3781489, 25.3557063], [55.3780923, 25.3555225], [55.3780527, 25.3553992], [55.37798, 25.3551483], [55.3779335, 25.3550077], [55.3778925, 25.3548744], [55.377848, 25.354727], [55.377803, 25.3545778], [55.3777577, 25.3544399], [55.3776756, 25.3541833], [55.3776233, 25.3540024], [55.3775681, 25.3538326], [55.3774814, 25.3535808], [55.3774017, 25.3533337], [55.3773442, 25.3531436], [55.3773089, 25.3530276], [55.3772648, 25.3528857], [55.3772174, 25.352726], [55.3772072, 25.3526754], [55.3772018, 25.3526136], [55.3771985, 25.3525378], [55.3772025, 25.3524554], [55.3772115, 25.3523724], [55.3772239, 25.3522633], [55.377289, 25.3518428], [55.3774151, 25.3509251], [55.3774529, 25.3506481], [55.3774673, 25.3505435], [55.3774841, 25.3504227], [55.3774979, 25.3503251], [55.3775129, 25.3502057], [55.37752, 25.3501612], [55.377529, 25.3501215], [55.3775479, 25.3500674], [55.3775616, 25.350036], [55.3775808, 25.3499984], [55.3776045, 25.3499609], [55.3776276, 25.3499303], [55.3776564, 25.349897], [55.3776886, 25.3498667], [55.3777279, 25.349837], [55.3777718, 25.3498064], [55.3778727, 25.3497449], [55.3779977, 25.3496738], [55.3782278, 25.3495415], [55.3783806, 25.349453], [55.3788211, 25.3492023], [55.3792622, 25.3489461], [55.3797093, 25.3486866], [55.3801555, 25.3484274], [55.3802806, 25.3483548], [55.3804054, 25.3482832], [55.380565, 25.3481919], [55.3809901, 25.3479477], [55.3810194, 25.3479299], [55.3810307, 25.3479167], [55.381033, 25.3479045], [55.3810304, 25.3478917], [55.381026, 25.3478793], [55.381019, 25.3478609], [55.3810579, 25.3478223], [55.3810539, 25.3477963], [55.3810561, 25.3477566], [55.3810687, 25.3477213], [55.381089, 25.347679], [55.3811245, 25.3476378], [55.3811631, 25.3476169], [55.3811926, 25.3476018], [55.3811406, 25.3475293], [55.3809649, 25.3472929], [55.3805462, 25.3467352], [55.3805023, 25.3467531], [55.3804752, 25.3467604], [55.3804315, 25.3467658], [55.3803996, 25.3467635], [55.3803745, 25.3467564], [55.3803531, 25.3467452], [55.3803345, 25.3467317], [55.3803105, 25.3467146], [55.3802857, 25.346704], [55.3802585, 25.3466979], [55.3802282, 25.3466945], [55.3802002, 25.3466916], [55.3801724, 25.3466949], [55.3801469, 25.3467046], [55.3801127, 25.3467194], [55.3800396, 25.3467488], [55.3799676, 25.3467783], [55.3799075, 25.3467997], [55.3798367, 25.3468215], [55.3797507, 25.3468495], [55.3796996, 25.3468624], [55.379656, 25.3468703], [55.3795847, 25.3468789], [55.3795404, 25.346884], [55.3795065, 25.3468852], [55.3794891, 25.3468797], [55.3794746, 25.3468727], [55.3793928, 25.3468891], [55.3792979, 25.3469088], [55.3791512, 25.3469276], [55.3790112, 25.3469442], [55.3788628, 25.3469591], [55.3787603, 25.346963], [55.3787028, 25.3469621], [55.3786311, 25.34696], [55.378522, 25.3469486], [55.3784497, 25.3469376], [55.378388, 25.3469252], [55.378333, 25.3469091], [55.3782796, 25.3468887], [55.3782338, 25.3468718], [55.3781959, 25.3468555], [55.3781456, 25.3468343], [55.3780702, 25.3467934], [55.3780065, 25.3467497], [55.3779569, 25.3467111], [55.3779139, 25.3466682], [55.3778809, 25.3466267], [55.3778042, 25.3465005], [55.3777687, 25.3463916], [55.3777537, 25.3463295], [55.3777473, 25.3462687], [55.3777483, 25.3462021], [55.3777505, 25.3461193], [55.377758, 25.3458335], [55.3777764, 25.34559], [55.3777791, 25.3455646], [55.3777996, 25.3453663], [55.377841, 25.3450973], [55.3778866, 25.3448559], [55.3778998, 25.3447927], [55.3779185, 25.3447097], [55.3779567, 25.3445592], [55.3779961, 25.3444025], [55.3780387, 25.344249], [55.3780666, 25.3441279], [55.3780863, 25.3440047], [55.3780991, 25.3438792], [55.3781019, 25.3438065], [55.3780974, 25.3437329], [55.378079, 25.3436584], [55.3780471, 25.3435757], [55.378024, 25.3435258], [55.3779869, 25.343452], [55.3779547, 25.343385], [55.3779304, 25.343341], [55.3779031, 25.3432986], [55.3778489, 25.3432006], [55.3777657, 25.3430747], [55.3776796, 25.3429446], [55.377649, 25.3429029], [55.3776156, 25.3428664], [55.3776039, 25.3428538], [55.3775774, 25.3428251], [55.3775729, 25.342811], [55.377575, 25.3427956], [55.3775823, 25.3427686], [55.3775938, 25.3427456], [55.3776103, 25.3427118], [55.3776225, 25.3426877], [55.3776649, 25.3425866], [55.3776278, 25.3425401], [55.3774542, 25.3422946], [55.3773364, 25.3421211], [55.3772976, 25.3420606], [55.3772784, 25.3420803], [55.3773013, 25.3421108], [55.3771275, 25.3422849], [55.3771252, 25.3423055], [55.3771191, 25.3423442], [55.3771099, 25.342392], [55.3770909, 25.3425065], [55.3770733, 25.3426224], [55.3770403, 25.3428601], [55.3769555, 25.3434874], [55.3768972, 25.343879], [55.3767587, 25.3448761], [55.3766401, 25.3457652], [55.3765787, 25.3462153], [55.3765502, 25.3464499], [55.3765022, 25.3467751], [55.376458, 25.3471031], [55.3764126, 25.3474174], [55.3763603, 25.3477784], [55.3763089, 25.3481562], [55.3762516, 25.3485989], [55.3762038, 25.3489601], [55.3761779, 25.3490837], [55.376147, 25.3492013], [55.3761135, 25.3492861], [55.3760853, 25.3493528], [55.3760317, 25.3494352], [55.37596, 25.3495254], [55.3759412, 25.3497], [55.3759101, 25.3499274], [55.3758895, 25.3500987], [55.3758675, 25.3502752], [55.3760364, 25.3501976], [55.37597, 25.3506363], [55.3759039, 25.351125], [55.3758276, 25.3517031], [55.3757819, 25.3520693], [55.3757509, 25.3523298], [55.3757232, 25.3525014], [55.3757053, 25.3526151], [55.3756951, 25.3526808], [55.3756944, 25.3527244], [55.3757018, 25.352765], [55.3757159, 25.3528026], [55.3757367, 25.3528681], [55.3757629, 25.3529528], [55.3758155, 25.3531373], [55.3758721, 25.3533127], [55.375941, 25.3535254], [55.376038, 25.353843], [55.3761848, 25.3543018], [55.3761563, 25.3543086], [55.3762036, 25.3544689], [55.3762416, 25.3544598], [55.3762544, 25.3545155], [55.3762218, 25.3545216], [55.3762703, 25.354691], [55.3763609, 25.3549891], [55.3764025, 25.3551307], [55.3764441, 25.3552568], [55.37648, 25.3553605], [55.3765423, 25.3555526], [55.3765854, 25.355679], [55.3767024, 25.355995], [55.3767525, 25.3561584], [55.376809, 25.3563277], [55.3769155, 25.3566499], [55.3770201, 25.3570062], [55.3771875, 25.3575221], [55.3772631, 25.357772], [55.3773144, 25.3579168], [55.377346, 25.3580145], [55.3773816, 25.3580993], [55.3774499, 25.3582084], [55.3775137, 25.3582873], [55.3774864, 25.3583055], [55.3775233, 25.3583506], [55.3775513, 25.3583319], [55.377578, 25.3583656], [55.3775992, 25.3583883], [55.3776504, 25.3584281], [55.3776317, 25.3584457], [55.3776715, 25.3584783], [55.3776892, 25.3584617], [55.3777866, 25.3585523], [55.3778985, 25.3586502], [55.3781017, 25.3588134], [55.3783118, 25.3589747], [55.3787838, 25.3593409], [55.3792805, 25.3597335], [55.3798032, 25.36014], [55.3801855, 25.3604189], [55.3814917, 25.3613991], [55.3834982, 25.3629404], [55.3843298, 25.363573], [55.3849218, 25.3641313], [55.387996, 25.3672429], [55.3879322, 25.3672996], [55.3882932, 25.3677335], [55.3885124, 25.3681587], [55.3887019, 25.3687377], [55.3886282, 25.3718198], [55.3885779, 25.3742149], [55.3884831, 25.3742282], [55.3884713, 25.3733324], [55.3875647, 25.37335], [55.3861675, 25.3738486], [55.3851529, 25.3742149], [55.3847723, 25.3743636], [55.3842251, 25.3747828], [55.3854041, 25.3761698], [55.3860178, 25.375715], [55.3859141, 25.3755992], [55.3860663, 25.3755244], [55.3862578, 25.3757558], [55.3854547, 25.376435], [55.3866154, 25.3777376], [55.3876981, 25.3789725], [55.3878804, 25.3791035], [55.3879627, 25.379243], [55.3877786, 25.3793413], [55.3862061, 25.3775575], [55.3844538, 25.3755604], [55.3838786, 25.3749234], [55.3832054, 25.3742388], [55.3826316, 25.3737918], [55.3816501, 25.3731575], [55.3789484, 25.3716873], [55.3760709, 25.3700934], [55.3729977, 25.3683969], [55.3705172, 25.3670426], [55.3705, 25.3670184], [55.3704774, 25.3669585], [55.3704888, 25.3668887], [55.3705726, 25.3668526], [55.3706416, 25.3668528], [55.3707871, 25.3669163], [55.3713313, 25.3652961], [55.3752434, 25.3673826], [55.3830549, 25.3717455], [55.3856965, 25.3693035], [55.3845623, 25.3682914], [55.3837632, 25.3675875], [55.3833227, 25.3672787], [55.3831991, 25.3673054], [55.3831129, 25.3672614], [55.3830748, 25.3671607], [55.3831111, 25.3671002], [55.3831826, 25.3670615], [55.382493, 25.3664668], [55.3823858, 25.3664795], [55.3822996, 25.3664355], [55.3822613, 25.3663527], [55.3823098, 25.3662672], [55.3793166, 25.3635935], [55.3787296, 25.363076], [55.3781244, 25.3633905], [55.3781205, 25.3633904], [55.3779205, 25.3630924], [55.3768429, 25.3636702], [55.3760487, 25.3640842], [55.3755307, 25.363301], [55.3735715, 25.3602946], [55.3723875, 25.3585458], [55.3717184, 25.3589076], [55.3715072, 25.3590192], [55.3710488, 25.3592626], [55.3705063, 25.3595566], [55.3699317, 25.3598625], [55.3693648, 25.3601579], [55.3687878, 25.3604672], [55.3681493, 25.3608173], [55.3678344, 25.3609848], [55.3675887, 25.3611157], [55.367568, 25.3610865], [55.3674741, 25.3611408], [55.3674339, 25.3610841], [55.3674949, 25.3610488], [55.3673954, 25.3609085], [55.3673648, 25.3608927], [55.3673226, 25.3608763], [55.3672931, 25.3608545], [55.3672736, 25.3608375], [55.3672709, 25.3608708], [55.3672468, 25.3608866], [55.3672305, 25.3609328], [55.3671891, 25.3608872], [55.3671395, 25.3609236], [55.3671025, 25.3608908], [55.367114, 25.3609254], [55.3671147, 25.3609617], [55.367111, 25.3609929], [55.3671023, 25.3610293], [55.3670948, 25.3610535], [55.3670822, 25.3610838], [55.3670643, 25.3611082], [55.36704, 25.3611238], [55.3670736, 25.3611446], [55.3670564, 25.361167], [55.3670268, 25.3611525], [55.3670027, 25.3611659], [55.3669682, 25.3611802], [55.3669309, 25.361196], [55.3669206, 25.3612511], [55.3669101, 25.361329], [55.3669043, 25.3613848], [55.3669011, 25.361416], [55.366896, 25.3614621], [55.3669461, 25.3614644], [55.3669451, 25.3614881], [55.3671132, 25.3614958], [55.3671089, 25.3615723], [55.367027, 25.3615685], [55.3670273, 25.3615495], [55.3669377, 25.3615455], [55.3669371, 25.3615545], [55.3668822, 25.3615521], [55.366848, 25.3618229], [55.3668124, 25.3620987], [55.366771, 25.3624366], [55.3667375, 25.3627006], [55.3667289, 25.3628121], [55.3667271, 25.3629449], [55.3667364, 25.3630435], [55.3667452, 25.3631273], [55.3667582, 25.3631902], [55.3668066, 25.363346], [55.3668979, 25.363601], [55.3669726, 25.3638144], [55.3671359, 25.3637676], [55.3671274, 25.3637399], [55.3672373, 25.3637122], [55.3672633, 25.3637963], [55.3671534, 25.363824], [55.3671392, 25.3637782], [55.3669806, 25.3638262], [55.3670486, 25.3640547], [55.3672192, 25.3640072], [55.3672014, 25.363949], [55.3671776, 25.3639556], [55.3671741, 25.3639442], [55.3673099, 25.3639103], [55.3673732, 25.3641172], [55.3672374, 25.3641512], [55.3672322, 25.3641343], [55.3672565, 25.3641289], [55.3672368, 25.3640644], [55.3670897, 25.3641033], [55.3670711, 25.3641477], [55.3671394, 25.3643246], [55.3673112, 25.3642757], [55.3673048, 25.3642556], [55.3674195, 25.3642259], [55.3674456, 25.3643079], [55.3673309, 25.3643376], [55.3673175, 25.3642955], [55.3671473, 25.3643447], [55.3671653, 25.3643834], [55.3671851, 25.3644367], [55.367208, 25.3645112], [55.367226, 25.3645812], [55.3672636, 25.3645751], [55.3672756, 25.3646169], [55.3672377, 25.3646251], [55.3672897, 25.364763], [55.36734, 25.364887], [55.3673598, 25.3649442], [55.3673953, 25.3649365], [55.3674206, 25.3650328], [55.3673863, 25.3650402], [55.3674161, 25.3651002], [55.367456, 25.3652116], [55.3675089, 25.3653574], [55.3675314, 25.3653508], [55.3675466, 25.3653933], [55.3675241, 25.3653999], [55.3677476, 25.3660645], [55.3678027, 25.3662284], [55.3678629, 25.3664061], [55.3681703, 25.3672755], [55.368354, 25.3678133], [55.3684264, 25.368021], [55.3685077, 25.368269], [55.368667, 25.3686986], [55.3688167, 25.3691389], [55.3689072, 25.3694151], [55.3689138, 25.3694329], [55.3689333, 25.3694495], [55.3689631, 25.3694587], [55.368989, 25.3694743], [55.3690077, 25.3694947], [55.3690161, 25.3695216], [55.3690238, 25.3695468], [55.3690258, 25.3695748], [55.3690284, 25.3696032], [55.3690165, 25.3696334], [55.369005, 25.3696535], [55.3689883, 25.36967], [55.3689678, 25.3696832], [55.3689397, 25.3696924], [55.3688977, 25.3697001], [55.3688695, 25.3697001], [55.3688362, 25.3696928], [55.3687998, 25.369671], [55.3687741, 25.3696425], [55.3687409, 25.3695258], [55.3687095, 25.3694281], [55.3685963, 25.3690328], [55.3684774, 25.3686586], [55.3682478, 25.3679806], [55.3681128, 25.3675676], [55.368, 25.3672473], [55.3679111, 25.3670164], [55.3678164, 25.3667736], [55.3677705, 25.3666458], [55.3677216, 25.3664982], [55.367594, 25.366128], [55.3674528, 25.3657348], [55.367327, 25.3653678], [55.3672633, 25.365195], [55.3672001, 25.3650236], [55.3670141, 25.3645088], [55.3668418, 25.3640098], [55.3666875, 25.3635313], [55.3666326, 25.3633806], [55.3666037, 25.3632909], [55.3665796, 25.3631723], [55.3665649, 25.3630764], [55.3665555, 25.3629946], [55.366551, 25.3629027], [55.3665573, 25.3628104], [55.3665678, 25.3626972], [55.3665834, 25.3625488], [55.3666037, 25.3623784], [55.3666257, 25.3621724], [55.3666543, 25.3619844], [55.3667402, 25.3613368], [55.3668212, 25.3606792], [55.366865, 25.3603218], [55.366888, 25.3601134], [55.3669116, 25.3599218], [55.3669595, 25.3595564], [55.3670837, 25.3585729], [55.3671449, 25.3580505], [55.3672072, 25.3575125], [55.3672414, 25.3572625], [55.3672811, 25.3569654], [55.3673238, 25.3564722], [55.3673851, 25.3559531], [55.3673863, 25.355913], [55.3673789, 25.3558867], [55.3673574, 25.3558618], [55.3673336, 25.3558497], [55.3672981, 25.3558379], [55.3671946, 25.3558189], [55.3670785, 25.3558009], [55.3669819, 25.3557749], [55.3669108, 25.3557391], [55.3668335, 25.3556906], [55.3667673, 25.3556222], [55.3667231, 25.3555591], [55.3666815, 25.3554695], [55.3666654, 25.355401], [55.3666608, 25.3553173], [55.3666681, 25.3552392], [55.3666978, 25.3551597], [55.3667331, 25.3550932], [55.3667982, 25.3550198], [55.366874, 25.3549598], [55.3671195, 25.3548255], [55.3673269, 25.3547144], [55.3674329, 25.354659], [55.3675439, 25.3545904], [55.3677395, 25.3531327], [55.3677544, 25.3530795], [55.3677808, 25.3530294], [55.3678201, 25.3529874], [55.3678691, 25.3529499], [55.3679712, 25.3528811], [55.3685852, 25.3525549], [55.3688588, 25.352408], [55.3688447, 25.3523693], [55.368847, 25.3523138], [55.3688585, 25.3522585], [55.3688876, 25.3522118], [55.368952, 25.3521367], [55.3690191, 25.3520651], [55.3690968, 25.3520058], [55.3692001, 25.3519415], [55.3692833, 25.3518991], [55.3693691, 25.3518731], [55.3694335, 25.3518682], [55.3695173, 25.3518791], [55.369577, 25.3518943], [55.3697034, 25.3518661], [55.3698325, 25.3518378], [55.3699593, 25.3518118], [55.3700879, 25.3517852], [55.3703871, 25.3517195], [55.3705891, 25.351681], [55.37088, 25.3516283], [55.3711065, 25.3515857], [55.3707316, 25.3511101], [55.37031, 25.3511265], [55.3702153, 25.3510204], [55.3700973, 25.3510265], [55.3695401, 25.3509956], [55.3694315, 25.3509871], [55.3693631, 25.3509841], [55.3692823, 25.3509912], [55.3691807, 25.3510132], [55.3690466, 25.3510514], [55.3688232, 25.351122], [55.3685696, 25.3512217], [55.3682831, 25.3513322], [55.3680716, 25.3514125], [55.3679126, 25.3514883], [55.3677946, 25.351561], [55.3676558, 25.3516507], [55.3675254, 25.3517491], [55.3674171, 25.35184], [55.3673621, 25.3518967], [55.3673152, 25.3519531], [55.3672957, 25.3519788], [55.3672575, 25.3520179], [55.3672116, 25.3520385], [55.367173, 25.3520412], [55.3671244, 25.3520282], [55.3670802, 25.3519991], [55.3670567, 25.3519721], [55.3670356, 25.3519252], [55.3670446, 25.3518721], [55.3670684, 25.3518249], [55.367106, 25.3517854], [55.3672479, 25.3516595], [55.3673838, 25.3515461], [55.3674648, 25.3514825], [55.3674665, 25.3514811], [55.3675565, 25.3514298], [55.3676451, 25.3513838], [55.367734, 25.3513422], [55.3678473, 25.3512896], [55.3679389, 25.3512478], [55.3680513, 25.3511957], [55.3681729, 25.3511526], [55.3682783, 25.3511154], [55.3684136, 25.3510707], [55.3685828, 25.3510138], [55.3687962, 25.3509382], [55.3689233, 25.3508964], [55.3689641, 25.3508746], [55.3689808, 25.3508508], [55.3689862, 25.3508162], [55.3689835, 25.3507774], [55.3689738, 25.3507239], [55.368893, 25.3504842], [55.36877, 25.3501842], [55.3687063, 25.350048], [55.3686288, 25.3498982], [55.3685664, 25.3498012], [55.3684987, 25.3496921], [55.3684364, 25.3496018], [55.3683391, 25.3494631], [55.3682744, 25.3493752], [55.3682144, 25.3492922], [55.3681774, 25.3492428], [55.3681273, 25.3491976], [55.3680813, 25.3491555], [55.3680556, 25.3491331], [55.3674113, 25.3494311], [55.367398, 25.3494376], [55.3673817, 25.3494426], [55.3673639, 25.3494429], [55.3673469, 25.3494374], [55.3673375, 25.3494259], [55.3673309, 25.349411], [55.3673312, 25.3493968], [55.3673382, 25.3493842], [55.3673538, 25.3493748], [55.3680167, 25.3490797], [55.3680041, 25.3490564], [55.3679809, 25.3490102], [55.3679532, 25.3489487], [55.3679217, 25.3488804], [55.36789, 25.3488209], [55.3678404, 25.3487566], [55.3677468, 25.3486371], [55.3677011, 25.348573], [55.3676755, 25.3485582], [55.3676486, 25.3485464], [55.367622, 25.3485448], [55.3675538, 25.3485721], [55.3675707, 25.3485947], [55.3675543, 25.3486056], [55.3674989, 25.3485391], [55.3673438, 25.348625], [55.3673365, 25.3486157], [55.3674924, 25.3485301], [55.3676644, 25.3484376], [55.3677051, 25.3484112], [55.3677242, 25.3483733], [55.3677256, 25.3483259], [55.3677189, 25.348285], [55.3676907, 25.3482165], [55.3676545, 25.3481596], [55.3676119, 25.348095], [55.367521, 25.3479554], [55.3674276, 25.3477924], [55.3673156, 25.3476159], [55.3671803, 25.3474025], [55.3670978, 25.3472968], [55.3669936, 25.3471627], [55.3667665, 25.3468747], [55.3666024, 25.3466355], [55.3664708, 25.3464193], [55.3661568, 25.3460327], [55.3660056, 25.3458683], [55.3658465, 25.3456564], [55.3656784, 25.3454005], [55.365614, 25.3452974], [55.3655542, 25.3451685], [55.3654571, 25.3450284], [55.3653613, 25.3449203], [55.3653042, 25.3448429], [55.3651801, 25.3446991], [55.3650601, 25.3445181], [55.36497, 25.3443976], [55.3648522, 25.3442333], [55.3647611, 25.3440972], [55.3646404, 25.343946], [55.3645213, 25.3438208], [55.3643663, 25.3436101], [55.3641635, 25.3433143], [55.363935, 25.3429977], [55.3638142, 25.3428225], [55.363678, 25.3426486], [55.3635219, 25.3425001], [55.363394, 25.3424015], [55.3633751, 25.342379], [55.3633624, 25.3423563], [55.362979, 25.3425623], [55.3629703, 25.3425663], [55.36296, 25.3425648], [55.3629547, 25.3425613], [55.3629525, 25.3425543], [55.3629544, 25.3425471], [55.3629612, 25.3425415], [55.3633584, 25.3423252], [55.3633623, 25.3423118], [55.363364, 25.3422831], [55.3633659, 25.3422524], [55.3633626, 25.3422271], [55.3633542, 25.3422004], [55.3633388, 25.3421792], [55.3633137, 25.3421638], [55.3632865, 25.3421407], [55.3632657, 25.3421104], [55.3631792, 25.3419837], [55.3630406, 25.3417974], [55.3629626, 25.3416819], [55.3628914, 25.3415951], [55.3627726, 25.3414458], [55.3627547, 25.3414032], [55.3627284, 25.3413313], [55.3626991, 25.341282], [55.3626515, 25.3412159], [55.3625759, 25.3411186], [55.3624879, 25.3410086], [55.3624191, 25.3409203], [55.3623471, 25.3408153], [55.3622841, 25.3407149], [55.3622136, 25.3406182], [55.3621191, 25.3404796], [55.3620051, 25.3403475], [55.3619406, 25.3402718], [55.3618817, 25.3402087], [55.3618093, 25.3401602], [55.3617479, 25.3401493], [55.361346, 25.3403548], [55.3613354, 25.3403566], [55.3613243, 25.3403541], [55.3613146, 25.3403481], [55.3613126, 25.3403373], [55.3613163, 25.3403291], [55.3613249, 25.3403217], [55.3617865, 25.3400564], [55.3618489, 25.3400219], [55.3618985, 25.339995], [55.3619333, 25.339976], [55.3619612, 25.3399602], [55.36199, 25.3399393], [55.3620098, 25.3399216], [55.3620218, 25.3398967], [55.3620254, 25.3398703], [55.3620145, 25.3397936], [55.3619979, 25.339733], [55.3619749, 25.3396602], [55.3619434, 25.3396045], [55.3618868, 25.3395277], [55.3618848, 25.3395267], [55.3618106, 25.3394457], [55.3617528, 25.3393843], [55.3616874, 25.3393042], [55.3615605, 25.3391499], [55.3614751, 25.3390388], [55.3613023, 25.3388209], [55.3611984, 25.3386997], [55.3611117, 25.3385854], [55.3609778, 25.3384153], [55.3608705, 25.3382651], [55.3607074, 25.3380412], [55.3605895, 25.3378869], [55.3604736, 25.3377349], [55.3603182, 25.3375248], [55.3602241, 25.337393], [55.3601447, 25.3372673], [55.3600144, 25.337149], [55.3599766, 25.3371064], [55.3598907, 25.3371629], [55.3598737, 25.3371724], [55.359856, 25.3371715], [55.3598405, 25.3371609], [55.3598355, 25.3371461], [55.3598387, 25.3371259], [55.3598521, 25.3371116], [55.3599742, 25.3370347], [55.3599405, 25.3369818], [55.3598888, 25.3369209], [55.3597744, 25.336792], [55.3596286, 25.3366476], [55.3594763, 25.336477], [55.3592681, 25.3362088], [55.3592055, 25.3361427], [55.3591519, 25.3360901], [55.3591003, 25.3360464], [55.3590406, 25.3360052], [55.3589762, 25.3359888], [55.3589352, 25.3359716], [55.3589091, 25.335947], [55.3589002, 25.3359245], [55.3588941, 25.3358871], [55.3589088, 25.3358612], [55.3589454, 25.3358253], [55.358973, 25.3358041], [55.3591958, 25.3356764], [55.3592291, 25.3356508], [55.3592438, 25.3356255], [55.3592543, 25.3355927], [55.3592394, 25.3355567], [55.359225, 25.3355193], [55.3591807, 25.3354542], [55.359129, 25.3353825], [55.3590095, 25.335239], [55.3588329, 25.3350556], [55.3585833, 25.3347579], [55.3584364, 25.3345955], [55.3582774, 25.3344249], [55.3580942, 25.3342238], [55.3579556, 25.3340657], [55.357784, 25.333852], [55.3576345, 25.3336719], [55.3574904, 25.3334893], [55.3573158, 25.3332913], [55.3571261, 25.3330713], [55.3569919, 25.3329267], [55.3567845, 25.3326816], [55.3566296, 25.3325064], [55.3564734, 25.3323398], [55.3563751, 25.3322421], [55.356267, 25.3321371], [55.356096, 25.3319829], [55.3559705, 25.3318624], [55.3558552, 25.3317659], [55.3557515, 25.3316785], [55.3556295, 25.3315887], [55.3554364, 25.3315039], [55.3553545, 25.3314772], [55.3552959, 25.3314577], [55.3552338, 25.3314382], [55.3551896, 25.3314306], [55.3551557, 25.3314315], [55.3551235, 25.331453], [55.3550749, 25.3315257], [55.3550505, 25.3315806], [55.3549625, 25.3317489], [55.3548606, 25.3319292], [55.3548439, 25.3319521], [55.3548225, 25.3319729], [55.3548003, 25.331983], [55.3547668, 25.3319896], [55.3547199, 25.3319822], [55.3546783, 25.3319629], [55.3546463, 25.33192], [55.3546354, 25.3318918], [55.3546333, 25.3318611], [55.3546384, 25.3318327], [55.3546464, 25.3318131], [55.3547201, 25.3316924], [55.3548599, 25.3314699], [55.355091, 25.3310984], [55.3552906, 25.3307438], [55.3557826, 25.3299143], [55.3558297, 25.3299116], [55.3558635, 25.3298536], [55.3559178, 25.3297784], [55.3559748, 25.3297075], [55.3560896, 25.3296034], [55.3562404, 25.3295106], [55.356345, 25.3294566], [55.3564535, 25.3294088], [55.3566034, 25.3293676], [55.356813, 25.3293392], [55.3569507, 25.3293357], [55.3569615, 25.329379], [55.3569669, 25.3293981], [55.3569759, 25.329412], [55.356991, 25.329422], [55.3570139, 25.3294321], [55.3570383, 25.3294357], [55.3570562, 25.3294351], [55.3570759, 25.3294317], [55.3570919, 25.3294263], [55.3571132, 25.3294109], [55.3572737, 25.3294463], [55.3573414, 25.3294645], [55.3574346, 25.3294984], [55.3575017, 25.3295287], [55.3575714, 25.3295614], [55.3576847, 25.3296135], [55.3578121, 25.329676], [55.357969, 25.3297466], [55.3581186, 25.3298131], [55.3582539, 25.3298736], [55.3582602, 25.329862], [55.3584826, 25.3299635], [55.3584749, 25.3299769], [55.3586879, 25.3300718], [55.3588673, 25.330155], [55.3589898, 25.330214], [55.3590752, 25.3302545], [55.359085, 25.3302583], [55.3591455, 25.330284], [55.3592245, 25.3303196], [55.3593512, 25.3303745], [55.3593623, 25.3303794], [55.359376, 25.3303839], [55.3595132, 25.3304348], [55.3596447, 25.330483], [55.3596523, 25.3304856], [55.3596657, 25.3304896], [55.3597683, 25.3305194], [55.3599002, 25.3305491], [55.3599874, 25.3305718], [55.3600956, 25.3305942], [55.36011, 25.3305971], [55.3601701, 25.330609], [55.3603048, 25.3306266], [55.3604013, 25.3306389], [55.3605073, 25.3306498], [55.3606964, 25.3306638], [55.3607776, 25.3306657], [55.3608602, 25.3306672], [55.3608645, 25.3307342], [55.3609807, 25.3307294], [55.3609805, 25.3306681], [55.3612463, 25.3306612], [55.3614381, 25.3306456], [55.3615585, 25.3306348], [55.3616727, 25.3306198], [55.3617932, 25.3305996], [55.3619687, 25.3305648], [55.3621354, 25.3305288], [55.3623715, 25.3304702], [55.3625547, 25.330414], [55.3626443, 25.3303883], [55.3631134, 25.3302048], [55.3632539, 25.3301372], [55.3634451, 25.3300376], [55.3636559, 25.3299215], [55.3639041, 25.3297536], [55.3640409, 25.3296566], [55.3641253, 25.3295944], [55.3642025, 25.3295314], [55.364517, 25.329259], [55.3645844, 25.3291931], [55.3647973, 25.328985], [55.3649974, 25.3287863], [55.3650695, 25.3287147], [55.3653206, 25.3284421], [55.3656491, 25.328065], [55.3657034, 25.3279997], [55.3661089, 25.3275095], [55.3663184, 25.3276509], [55.3665362, 25.3274811], [55.3667901, 25.3273195], [55.3669165, 25.3272413], [55.3670348, 25.3271656], [55.3671134, 25.3271128], [55.3671804, 25.3270589], [55.3672354, 25.3270152], [55.3673092, 25.3269613], [55.3673943, 25.3269176], [55.3674527, 25.326894], [55.3675177, 25.326874], [55.3675613, 25.326851], [55.3676062, 25.3268225], [55.3676498, 25.3267837], [55.3677024, 25.3267382], [55.3677668, 25.3266825], [55.3678134, 25.3266373], [55.3678536, 25.32659], [55.3678751, 25.3265625], [55.3678885, 25.3265352], [55.3679061, 25.326502], [55.3680015, 25.3263785], [55.3680865, 25.3262736], [55.3680915, 25.3262687], [55.3680976, 25.3262669], [55.3681046, 25.3262681], [55.3681089, 25.3262724], [55.3681089, 25.3262787], [55.3681065, 25.3262841], [55.3680578, 25.3263641], [55.3680001, 25.3264749], [55.3680417, 25.3264828], [55.3681259, 25.3264961], [55.3681802, 25.3265013], [55.3682305, 25.326503], [55.3682771, 25.3265028], [55.3683304, 25.3265013], [55.368396, 25.3265003], [55.3684648, 25.3264949], [55.3686067, 25.3264849], [55.3688356, 25.3264685], [55.3688357, 25.3264685], [55.3691585, 25.3264431], [55.3693956, 25.326416], [55.3695743, 25.3263909], [55.369705, 25.3263679], [55.3698308, 25.3263447], [55.3699196, 25.3263285], [55.3699723, 25.3263255], [55.3700155, 25.3263225], [55.3700584, 25.3263128], [55.3701057, 25.3262952], [55.37016, 25.3262761], [55.3703595, 25.3262127], [55.3705935, 25.326134], [55.3707786, 25.32607], [55.3710146, 25.3259727], [55.3712086, 25.325888], [55.3713774, 25.3258006], [55.3715884, 25.3256838], [55.371708, 25.3256253], [55.371832, 25.3255591], [55.3719411, 25.3255], [55.372054, 25.3254224], [55.3721577, 25.3253512], [55.3722833, 25.3252624], [55.3723577, 25.3252078], [55.372415, 25.325169], [55.3724577, 25.3251442], [55.3724858, 25.3251193], [55.3725167, 25.3250824], [55.3725395, 25.3250539], [55.3725944, 25.3249963], [55.372634, 25.3249557], [55.3727405, 25.3248524], [55.3728801, 25.3247145], [55.3729971, 25.3245768], [55.3731403, 25.3243944], [55.3732787, 25.3241955], [55.3733569, 25.3240592], [55.3734192, 25.3239398], [55.3734943, 25.3238004], [55.3735699, 25.3236456], [55.3736579, 25.3234283], [55.3737186, 25.3231989], [55.3737384, 25.322984], [55.3737478, 25.3227872], [55.3737505, 25.322627], [55.3737461, 25.3224841], [55.3737411, 25.3223385], [55.373725, 25.3222148], [55.3737116, 25.3221294], [55.3737029, 25.3220894], [55.3736928, 25.3220481], [55.3736726, 25.3219853], [55.3736626, 25.32197], [55.3734901, 25.3219544], [55.37349, 25.3219256], [55.3734928, 25.3218934], [55.3734982, 25.3218692], [55.3735051, 25.3218499], [55.3735199, 25.3218223], [55.3735376, 25.3217942], [55.3735553, 25.3217678], [55.3735781, 25.3217384], [55.3736061, 25.3217083], [55.3736385, 25.3216796], [55.373669, 25.3216596], [55.3737052, 25.3216369], [55.3737404, 25.3216209], [55.3737967, 25.3216017], [55.3738562, 25.3215881], [55.3739258, 25.3215823], [55.3739935, 25.3215871], [55.3740519, 25.3215975], [55.3740982, 25.3216117], [55.374108, 25.3213236], [55.3740868, 25.3213179], [55.374017, 25.3212908], [55.3739516, 25.3212564], [55.3738849, 25.3212126], [55.3738258, 25.3211622], [55.3737773, 25.3211135], [55.37374, 25.3210648], [55.3737045, 25.3210059], [55.3736754, 25.3209473], [55.3736616, 25.3209065], [55.3736519, 25.3208577], [55.3736431, 25.3208026], [55.3736425, 25.3206653], [55.3735575, 25.320623], [55.3735627, 25.320251], [55.3735768, 25.3198576], [55.3735882, 25.3191042], [55.3735989, 25.3187332], [55.3735996, 25.3183641], [55.3736319, 25.3176229], [55.3736687, 25.3173469], [55.3736964, 25.3170896], [55.3737073, 25.3168404], [55.3737098, 25.3163024], [55.3737102, 25.3160552], [55.3736863, 25.3158248], [55.3736502, 25.3156495], [55.3736023, 25.3154677], [55.3735493, 25.3153254], [55.3734709, 25.3151792], [55.3733118, 25.3149517], [55.3731871, 25.3147813], [55.3730246, 25.3146239], [55.3728619, 25.3144824], [55.3727145, 25.3143647], [55.3725338, 25.3142571], [55.3723289, 25.3141446], [55.3721155, 25.3140558], [55.3718689, 25.3139658], [55.3715652, 25.3138828], [55.3713499, 25.3138361], [55.3711662, 25.3138191], [55.3708877, 25.3138062], [55.3706042, 25.3138173], [55.3703411, 25.313835], [55.3700785, 25.3138658], [55.36981, 25.3139118], [55.3695662, 25.3139694], [55.3693623, 25.3140264], [55.369184, 25.314084], [55.3690413, 25.3141352], [55.3688474, 25.3142059], [55.3686584, 25.3142902], [55.3683954, 25.3144259], [55.3681607, 25.3145596], [55.3679395, 25.3146962], [55.3677207, 25.314831], [55.3675613, 25.3149339], [55.3674348, 25.315018], [55.3673608, 25.315069], [55.3672904, 25.3151224], [55.3672374, 25.3151709], [55.3671788, 25.3152255], [55.3671013, 25.3152878], [55.3670195, 25.3153466], [55.3669564, 25.3153933], [55.366876, 25.3154661], [55.3667832, 25.3155635], [55.3666713, 25.315677], [55.3665608, 25.3157897], [55.3664428, 25.3158928], [55.3662976, 25.3160284], [55.3661799, 25.3161522], [55.3660476, 25.3162942], [55.3659654, 25.3163838], [55.3658708, 25.3164983], [55.3658038, 25.3165868], [55.3657448, 25.316662], [55.365697, 25.3167341], [55.3656428, 25.3168099], [55.3655738, 25.3169075], [55.3654739, 25.3170348], [55.365449, 25.3170645], [55.3654279, 25.3170984], [55.3654158, 25.3171254], [55.3654018, 25.3171606], [55.3653169, 25.3173003], [55.3652173, 25.3174659], [55.365105, 25.3176537], [55.364987, 25.3178622], [55.3648784, 25.3180628], [55.3648335, 25.3181592], [55.3648127, 25.3182143], [55.3647974, 25.3182754], [55.3647845, 25.3183313], [55.3647731, 25.3183883], [55.3647537, 25.3184556], [55.3647222, 25.3185392], [55.3646824, 25.3186471], [55.364645, 25.3187477], [55.3646189, 25.3188047], [55.3646041, 25.318852], [55.3645961, 25.3188932], [55.3645881, 25.3189454], [55.3645773, 25.3189957], [55.3645532, 25.319072], [55.3645332, 25.319139], [55.3645143, 25.3191999], [55.3644935, 25.3192805], [55.3644888, 25.3193527], [55.3644794, 25.3194206], [55.3644653, 25.3194933], [55.3644365, 25.3195612], [55.3644197, 25.3196103], [55.3644124, 25.3196654], [55.364411, 25.3197333], [55.3644057, 25.3198133], [55.3643931, 25.3199035], [55.3643835, 25.3199964], [55.3643674, 25.3200843], [55.364348, 25.3202049], [55.3643306, 25.3203164], [55.3643171, 25.320417], [55.3643158, 25.3205189], [55.3643189, 25.3206072], [55.3643265, 25.3206783], [55.3643386, 25.3207401], [55.3643433, 25.3207753], [55.3643492, 25.3208223], [55.3643473, 25.3208516], [55.3643346, 25.3208898], [55.3643111, 25.3209668], [55.3642661, 25.3211035], [55.3642313, 25.3212256], [55.3641991, 25.3213669], [55.3641785, 25.3214469], [55.3641381, 25.3215311], [55.3640945, 25.3215996], [55.3640503, 25.321656], [55.3639879, 25.321716], [55.3639414, 25.3217558], [55.3638357, 25.3218742], [55.363711, 25.3220366], [55.3635809, 25.3222184], [55.363479, 25.3223748], [55.3633759, 25.322556], [55.3633167, 25.3226864], [55.363277, 25.3228265], [55.3632523, 25.3229604], [55.3632481, 25.3230852], [55.3632429, 25.3233736], [55.3632537, 25.3234937], [55.363263, 25.3236065], [55.3632711, 25.3237083], [55.3632715, 25.3238031], [55.3632537, 25.3239944], [55.3632173, 25.3242294], [55.3631987, 25.3242987], [55.3631752, 25.3244307], [55.3631397, 25.324792], [55.3631151, 25.3252668], [55.3631148, 25.3253169], [55.3631222, 25.3253572], [55.3631232, 25.3254042], [55.3631138, 25.3254589], [55.3631031, 25.3254985], [55.3630853, 25.3255297], [55.3630669, 25.3255569], [55.3630592, 25.325586], [55.3630555, 25.32562], [55.3630532, 25.3257036], [55.3630592, 25.3257551], [55.363072, 25.3258456], [55.3634412, 25.325852], [55.3634406, 25.3260078], [55.3634213, 25.3262115], [55.3633972, 25.3263884], [55.3633502, 25.3266285], [55.3632935, 25.3268428], [55.3632235, 25.3270298], [55.3631574, 25.3271826], [55.3630887, 25.3273098], [55.3630143, 25.3274411], [55.3629069, 25.3276124], [55.3628078, 25.3277449], [55.3626829, 25.3278939], [55.3625174, 25.3280795], [55.362229, 25.3283341], [55.3620337, 25.3284895], [55.3618206, 25.3286227], [55.3616363, 25.3287244], [55.3614258, 25.3288271], [55.3612138, 25.3289062], [55.3609915, 25.3289789], [55.3608004, 25.3290314], [55.3605983, 25.3290711], [55.3603763, 25.3291113], [55.3601146, 25.3291342], [55.3597434, 25.3291421], [55.3594952, 25.3291238], [55.3591559, 25.3290741], [55.3589746, 25.3290344], [55.3587851, 25.3289844], [55.3586088, 25.3289223], [55.3584545, 25.3288626], [55.3583018, 25.3287973], [55.3583006, 25.3288108], [55.3582891, 25.3288253], [55.3582684, 25.3288329], [55.3582338, 25.3288308], [55.3581943, 25.3288102], [55.3581394, 25.328782], [55.3580492, 25.3287365], [55.3579851, 25.328705], [55.3579057, 25.328672], [55.3578001, 25.3286368], [55.3576646, 25.3285996], [55.3575694, 25.3285753], [55.3574754, 25.3285553], [55.3573501, 25.3285414], [55.3572173, 25.3285293], [55.3571791, 25.3285202], [55.3571622, 25.328504], [55.357151, 25.3284565], [55.3571429, 25.328422], [55.3571228, 25.3283844], [55.3570951, 25.3283623], [55.357037, 25.3283511], [55.3569781, 25.3283479], [55.3569049, 25.3283541], [55.3568407, 25.3283651], [55.3566843, 25.3283941], [55.3565133, 25.3284299], [55.3563599, 25.3284665], [55.3562357, 25.3285105], [55.3560989, 25.3285674], [55.355996, 25.328617], [55.3558943, 25.328668], [55.3557904, 25.3287323], [55.3556845, 25.3288014], [55.3555914, 25.3288702], [55.3555021, 25.3289408], [55.3554176, 25.3290196], [55.3553364, 25.3291044], [55.3552434, 25.3292064], [55.3551752, 25.3292811], [55.3551034, 25.3293603], [55.3550803, 25.3293802], [55.3550602, 25.3293908], [55.3550387, 25.3293917], [55.3550174, 25.3293903], [55.3549948, 25.3293744], [55.3549881, 25.3293618], [55.3549854, 25.3293414], [55.3549901, 25.3293229], [55.3549978, 25.3293047], [55.3550075, 25.3292899], [55.355093, 25.3291905], [55.3552022, 25.3290788], [55.3553344, 25.3289426], [55.3554001, 25.3288826], [55.3554739, 25.3288177], [55.3555383, 25.3287638], [55.3556268, 25.3287026], [55.3557919, 25.3286058], [55.3558595, 25.3285656], [55.3559388, 25.3285252], [55.3558662, 25.3284155], [55.3558159, 25.328342], [55.3557583, 25.3282657], [55.3557166, 25.3282153], [55.355663, 25.3281553], [55.355606, 25.3281007], [55.3555363, 25.328043], [55.3554625, 25.3279929], [55.3553731, 25.3279383], [55.3552888, 25.3279001], [55.355258, 25.327891], [55.3552338, 25.3278898], [55.3552028, 25.3278936], [55.3550843, 25.3280098], [55.3549489, 25.3281298], [55.3548899, 25.3281814], [55.3548228, 25.3282359], [55.3547564, 25.3282814], [55.3546773, 25.3283339], [55.3545807, 25.3283874], [55.3544743, 25.328441], [55.3542611, 25.3285758], [55.3541871, 25.3286438], [55.3541187, 25.3287135], [55.3540678, 25.3287741], [55.3540099, 25.3288544], [55.353945, 25.3289802], [55.3539162, 25.3290432], [55.3538909, 25.3291147], [55.3538773, 25.329162], [55.3538666, 25.3291941], [55.3538421, 25.329219], [55.3538024, 25.3292255], [55.3537627, 25.329216], [55.3537301, 25.3291924], [55.3537202, 25.3291677], [55.3537191, 25.3291378], [55.3537259, 25.3291012], [55.3537553, 25.3290317], [55.3537863, 25.3289668], [55.3538378, 25.3288662], [55.3539035, 25.328762], [55.3539625, 25.328685], [55.3540247, 25.3286192], [55.3540966, 25.3285474], [55.3542007, 25.3284669], [55.3543199, 25.3283868], [55.3544547, 25.328308], [55.3545532, 25.3282517], [55.35464, 25.3281946], [55.354735, 25.3281317], [55.3548262, 25.328062], [55.3548939, 25.3280032], [55.3549764, 25.3279232], [55.3550752, 25.3278184], [55.3551386, 25.3277335], [55.3551936, 25.3276492], [55.3552513, 25.3275583], [55.3552993, 25.3274747], [55.3553338, 25.3274001], [55.3553659, 25.3273237], [55.3554062, 25.3272092], [55.3554496, 25.3270695], [55.3554887, 25.3269443], [55.3555255, 25.3267995], [55.3555479, 25.3267109], [55.3555658, 25.3266207], [55.3555812, 25.3265449], [55.3555939, 25.3264461], [55.3556027, 25.326377], [55.3556107, 25.3262618], [55.3556145, 25.3261698], [55.3556134, 25.326063], [55.3556107, 25.3259309], [55.3556073, 25.3257315], [55.355602, 25.3256345], [55.3555906, 25.325523], [55.3555778, 25.3254188], [55.3555604, 25.3253212], [55.3555443, 25.3252357], [55.3555316, 25.3251363], [55.3555202, 25.3250314], [55.3555068, 25.3249211], [55.3554947, 25.3247569], [55.3554833, 25.3246047], [55.3554812, 25.3245223], [55.3554789, 25.3244338], [55.3554756, 25.3243853], [55.3554719, 25.3243317], [55.3554746, 25.3243078], [55.3554813, 25.3242914], [55.3554991, 25.324275], [55.3555202, 25.3242653], [55.3555467, 25.3242665], [55.3555671, 25.324275], [55.3555782, 25.3242902], [55.3555822, 25.3243108], [55.3555815, 25.3243326], [55.3555788, 25.3243581], [55.3555715, 25.3243935], [55.3555685, 25.3244247], [55.3555654, 25.3244653], [55.3555688, 25.3245066], [55.3555706, 25.3245548], [55.3556255, 25.3245553], [55.355611, 25.324537], [55.3556067, 25.3245237], [55.3556058, 25.3245094], [55.355613, 25.3244928], [55.3556268, 25.3244841], [55.3556439, 25.3244825], [55.355661, 25.3244866], [55.3556757, 25.324494], [55.3556916, 25.3244974], [55.3557173, 25.3244938], [55.3557421, 25.3244782], [55.3557837, 25.3244362], [55.3558186, 25.3243956], [55.3558447, 25.3243659], [55.3558689, 25.324335], [55.355896, 25.3242938], [55.3559158, 25.3242587], [55.3559299, 25.3242199], [55.3559326, 25.3242062], [55.3559314, 25.3241921], [55.3559285, 25.3241758], [55.3559297, 25.324167], [55.3559346, 25.3241594], [55.355945, 25.3241544], [55.3559557, 25.324153], [55.3559681, 25.3241549], [55.3559849, 25.3241599], [55.3559983, 25.3241632], [55.356011, 25.324162], [55.3560241, 25.3241593], [55.3560566, 25.3241447], [55.3560858, 25.3241314], [55.3560939, 25.3241266], [55.3560987, 25.3241228], [55.3561007, 25.3241196], [55.3561007, 25.3241138], [55.3560988, 25.32411], [55.3560937, 25.3241077], [55.3560889, 25.3241074], [55.3560784, 25.324108], [55.3560462, 25.3241105], [55.356016, 25.3241153], [55.3559926, 25.3241218], [55.3559671, 25.3241185], [55.355949, 25.32411], [55.3559359, 25.324093], [55.3559312, 25.3240732], [55.3559178, 25.3240071], [55.3558984, 25.3239398], [55.3558863, 25.323892], [55.3558668, 25.3238259], [55.3558541, 25.3237904], [55.3558447, 25.3237674], [55.3558425, 25.3237566], [55.3558435, 25.3237483], [55.3558471, 25.3237389], [55.3558524, 25.3237322], [55.3558588, 25.3237277], [55.3558687, 25.3237242], [55.3558804, 25.3237232], [55.3558925, 25.3237247], [55.3559012, 25.3237266], [55.3559074, 25.3237304], [55.3559134, 25.323735], [55.3559181, 25.3237401], [55.3559226, 25.3237419], [55.3559267, 25.3237407], [55.3559304, 25.3237358], [55.3559319, 25.3237297], [55.3559321, 25.3237221], [55.3559287, 25.3237151], [55.3559222, 25.3237117], [55.3559109, 25.3237088], [55.3558999, 25.3237041], [55.3558957, 25.3236985], [55.3558954, 25.3236924], [55.3558979, 25.3236861], [55.3559034, 25.3236812], [55.3559108, 25.3236774], [55.3559188, 25.3236759], [55.3559275, 25.3236744], [55.3559363, 25.3236759], [55.3559354, 25.323666], [55.3559312, 25.3236557], [55.355928, 25.3236519], [55.3559232, 25.3236479], [55.3558876, 25.3236816], [55.3558746, 25.323695], [55.3558601, 25.3237062], [55.3558367, 25.3237174], [55.3558065, 25.3237198], [55.3557809, 25.3237115], [55.3557638, 25.3236956], [55.3556952, 25.3235804], [55.3556241, 25.3234598], [55.3555694, 25.3233639], [55.3555369, 25.3233095], [55.3555074, 25.3232567], [55.3554759, 25.3232028], [55.3554471, 25.3231398], [55.3554296, 25.323084], [55.3554149, 25.3230137], [55.3553961, 25.3228864], [55.3553706, 25.3226549], [55.3553277, 25.3222657], [55.3552828, 25.3218396], [55.3552288, 25.3214035], [55.3551615, 25.320947], [55.3551447, 25.3208019], [55.3551261, 25.3206437], [55.3551031, 25.3204571], [55.3550775, 25.3202724], [55.3550522, 25.3200758], [55.3550518, 25.3200497], [55.3550528, 25.3200276], [55.3550568, 25.3199982], [55.3550655, 25.3199788], [55.3550813, 25.3199637], [55.3550974, 25.3199521], [55.3551051, 25.3199434], [55.3551071, 25.3199331], [55.3551064, 25.3199203], [55.3550997, 25.3199073], [55.3550756, 25.3198788], [55.3550634, 25.3198597], [55.3550548, 25.3198418], [55.3550483, 25.3198142], [55.355049, 25.3197946], [55.3550521, 25.3197791], [55.3550575, 25.3197633], [55.3550605, 25.3197497], [55.3550602, 25.3197367], [55.3550562, 25.3197239], [55.3550464, 25.3197112], [55.3550374, 25.3197012], [55.3550196, 25.3196909], [55.3550079, 25.3196833], [55.3550012, 25.3196697], [55.3549898, 25.31962], [55.3549549, 25.3194442], [55.3549395, 25.3193266], [55.3549241, 25.3191623], [55.3549252, 25.3189908], [55.3549346, 25.3188082], [55.3549482, 25.3186614], [55.3549633, 25.3185283], [55.3549757, 25.3184577], [55.3549904, 25.3183813], [55.3550152, 25.3182773], [55.3550256, 25.3182289], [55.355038, 25.3181786], [55.3550478, 25.3181407], [55.3550672, 25.3180758], [55.3550887, 25.318024], [55.355094, 25.318012], [55.3551019, 25.3180004], [55.3551111, 25.3179967], [55.3551217, 25.3179952], [55.3551328, 25.3179925], [55.3551427, 25.3179846], [55.3551478, 25.3179725], [55.355152, 25.3179586], [55.3551641, 25.3179088], [55.3551822, 25.3178234], [55.3552042, 25.3177482], [55.3552546, 25.3176312], [55.3553277, 25.3174827], [55.3554256, 25.3173184], [55.3555604, 25.3171202], [55.3556362, 25.3170269], [55.3557083, 25.3169424], [55.355781, 25.3168602], [55.3558514, 25.316785], [55.3559245, 25.3167111], [55.3560178, 25.3166366], [55.3561243, 25.3165583], [55.3562732, 25.3164699], [55.3563912, 25.3163971], [55.3565307, 25.3163135], [55.3566353, 25.3162359], [55.3567547, 25.3161498], [55.3568754, 25.3160734], [55.3569867, 25.3160011], [55.3570779, 25.3159376], [55.3571597, 25.3158795], [55.357279, 25.3158043], [55.3573965, 25.3157387], [55.3575177, 25.3156988], [55.3576304, 25.3156673], [55.3577645, 25.3156182], [55.357849, 25.31558], [55.3579549, 25.3155291], [55.3580488, 25.315483], [55.3581318, 25.315434], [55.3582312, 25.3153666], [55.3583408, 25.3152884], [55.3584217, 25.3152381], [55.3585001, 25.3151987], [55.3585801, 25.3151665], [55.358712, 25.3151218], [55.3588294, 25.3150835], [55.3588984, 25.3150599], [55.3589802, 25.3150266], [55.35907, 25.3149787], [55.3591807, 25.3149163], [55.3592789, 25.314853], [55.3593946, 25.3147708], [55.3594724, 25.3147152], [55.359528, 25.3146666], [55.3595395, 25.3146535], [55.3595438, 25.3146399], [55.3595448, 25.314625], [55.3595423, 25.3146139], [55.3599865, 25.3141469], [55.3600092, 25.3141207], [55.3600249, 25.3140955], [55.3600377, 25.3140701], [55.3600588, 25.3140419], [55.3600819, 25.3140195], [55.3601004, 25.3140028], [55.3601228, 25.3139882], [55.3601409, 25.3139697], [55.360156, 25.3139472], [55.3601681, 25.3139243], [55.3601839, 25.3139022], [55.3602107, 25.3138799], [55.3602375, 25.31387], [55.3602601, 25.3138628], [55.3602821, 25.3138552], [55.3603015, 25.3138455], [55.3603226, 25.3138305], [55.3604599, 25.3137246], [55.360595, 25.3136171], [55.360746, 25.3135111], [55.3609727, 25.3133662], [55.3611696, 25.313256], [55.3613528, 25.3131525], [55.3614673, 25.313102], [55.3615183, 25.3130917], [55.3615699, 25.313079], [55.3616215, 25.3130596], [55.3616695, 25.3130381], [55.3617248, 25.3130008], [55.3617664, 25.3129705], [55.361822, 25.3129468], [55.3619088, 25.3129104], [55.3620158, 25.3128644], [55.3621151, 25.3128177], [55.3622345, 25.3127581], [55.3624074, 25.312645], [55.3626236, 25.3124952], [55.3628097, 25.3123443], [55.3629731, 25.3121988], [55.3632091, 25.3119858], [55.3633395, 25.3118569], [55.3634804, 25.3117011], [55.36359, 25.3115394], [55.3637053, 25.311334], [55.3638121, 25.3111222], [55.3639148, 25.3108749], [55.3639961, 25.3106645], [55.3640592, 25.3104239], [55.3641141, 25.310139], [55.3641345, 25.3098124], [55.364129, 25.309548], [55.3641252, 25.309377], [55.3641025, 25.3091227], [55.36407, 25.308888], [55.3640154, 25.3086745], [55.3639549, 25.3084852], [55.3639121, 25.3083617], [55.3638482, 25.308186], [55.363774, 25.3080271], [55.36369, 25.3078623], [55.3636198, 25.307747], [55.3635393, 25.3076403], [55.3634746, 25.3075721], [55.3634256, 25.3075232], [55.3633805, 25.3074866], [55.3633517, 25.3074704], [55.3633214, 25.3074615], [55.3633068, 25.3074588], [55.3632919, 25.3074591], [55.3632823, 25.3074624], [55.3632713, 25.3074706], [55.3632578, 25.30748], [55.3632431, 25.3074874], [55.3632258, 25.3074951], [55.3632084, 25.3075021], [55.3631879, 25.3075076], [55.3631722, 25.30751], [55.3631526, 25.3075095], [55.3631214, 25.3075029], [55.3630847, 25.3074903], [55.3630278, 25.3074663], [55.362971, 25.3074351], [55.3629083, 25.3073984], [55.3628684, 25.30737], [55.3628245, 25.307333], [55.3627811, 25.3072924], [55.3627464, 25.3072563], [55.3627192, 25.3072202], [55.3627047, 25.3071905], [55.3626998, 25.3071608], [55.3626994, 25.3071263], [55.3627005, 25.3071008], [55.3626978, 25.3070638], [55.362688, 25.3070343], [55.362674, 25.3070135], [55.3626559, 25.3069938], [55.3626277, 25.3069738], [55.3625868, 25.306955], [55.3624798, 25.3069117], [55.3623753, 25.3068667], [55.3622385, 25.3068085], [55.362056, 25.3067359], [55.3619231, 25.3066962], [55.36171, 25.3066365], [55.3614365, 25.306571], [55.3611669, 25.3065201], [55.3608601, 25.3064742], [55.3607176, 25.3064546], [55.3606053, 25.3064406], [55.3605144, 25.3064309], [55.3604608, 25.3064279], [55.3604092, 25.3064328], [55.3603578, 25.3064419], [55.3603274, 25.3064516], [55.3602922, 25.3064667], [55.3602099, 25.3065054], [55.3601336, 25.3065395], [55.3600257, 25.3065831], [55.3599143, 25.3066261], [55.3597797, 25.306676], [55.3595939, 25.3067488], [55.3594925, 25.3067935], [55.3593739, 25.3068513], [55.3592598, 25.3069147], [55.359118, 25.3069955], [55.3590077, 25.3070632], [55.3589314, 25.3071098], [55.3588334, 25.3071741], [55.3587636, 25.3072184], [55.3586731, 25.3072863], [55.3585989, 25.3073463], [55.358543, 25.3073942], [55.358482, 25.3074536], [55.3584263, 25.3075088], [55.358351, 25.3075874], [55.3582875, 25.3076579], [55.3582078, 25.3077527], [55.3581071, 25.3078678], [55.3580017, 25.3079882], [55.3578684, 25.3081489], [55.3577256, 25.3083193], [55.3575982, 25.3085023], [55.3574715, 25.3086991], [55.3573863, 25.3088466], [55.3572871, 25.3090321], [55.3572123, 25.309171], [55.3571315, 25.3093243], [55.3570363, 25.3095389], [55.3569689, 25.3097182], [55.3568562, 25.3100183], [55.3567775, 25.31023], [55.3566892, 25.3104601], [55.3565958, 25.3107035], [55.356458, 25.3109985], [55.3563564, 25.311195], [55.3562587, 25.311375], [55.3561887, 25.3115011], [55.3561297, 25.3115905], [55.3560673, 25.3116763], [55.3560043, 25.31176], [55.3559342, 25.3118334], [55.355885, 25.3118782], [55.3558226, 25.3119248], [55.3557529, 25.3119697], [55.3556811, 25.3120079], [55.3555879, 25.3120503], [55.3554485, 25.3121078], [55.3552875, 25.3121776], [55.355127, 25.3122504], [55.3549596, 25.3123328], [55.354802, 25.3124151], [55.3546491, 25.3124983], [55.3545265, 25.3125713], [55.3543738, 25.3126687], [55.35423, 25.3127692], [55.3541094, 25.3128636], [55.3539762, 25.3129821], [55.3538243, 25.3131354], [55.3536879, 25.3132924], [55.3536037, 25.3134003], [55.3535032, 25.3135379], [55.3534073, 25.3136815], [55.3533563, 25.3137585], [55.353312, 25.3138429], [55.3532658, 25.3139452], [55.3532305, 25.3140467], [55.3532081, 25.3141258], [55.3531947, 25.3141927], [55.3531893, 25.3142616], [55.3531936, 25.3143065], [55.3531991, 25.3143401], [55.3532081, 25.3143789], [55.3532158, 25.3144113], [55.3532175, 25.3144367], [55.3532141, 25.3144701], [55.3531994, 25.3145083], [55.3531645, 25.3145617], [55.353139, 25.314618], [55.3531192, 25.3146897], [55.3531122, 25.3147587], [55.3531129, 25.3148384], [55.3531203, 25.3149072], [55.3531283, 25.3149642], [55.3531277, 25.3150558], [55.3531209, 25.3151181], [55.3531122, 25.3151775], [55.3531042, 25.3152463], [55.3531041, 25.3153119], [55.3531072, 25.3154054], [55.3531042, 25.3154858], [55.3530988, 25.3155521], [55.3530906, 25.315604], [55.353078, 25.3156746], [55.3530599, 25.3157813], [55.3530439, 25.3159147], [55.35326, 25.3159078], [55.3532564, 25.316008], [55.3530525, 25.3160023], [55.3530348, 25.3160547], [55.353019, 25.3160977], [55.3529922, 25.3161468], [55.3529577, 25.3162028], [55.3529235, 25.3162489], [55.3528927, 25.3162835], [55.3528616, 25.3162606], [55.3528323, 25.3162847], [55.3527967, 25.3163107], [55.3527609, 25.3163335], [55.3527134, 25.3163514], [55.3526412, 25.3163659], [55.3525555, 25.3163783], [55.352378, 25.3163983], [55.3522532, 25.3164074], [55.3521359, 25.3164117], [55.3520145, 25.3164123], [55.3518913, 25.3164105], [55.3517999, 25.316405], [55.3516983, 25.3163989], [55.3515784, 25.3163778], [55.3515089, 25.3163571], [55.3514507, 25.3163314], [55.3513849, 25.3162977], [55.3513325, 25.3162532], [55.3503937, 25.3162588], [55.349596, 25.3146833], [55.3490689, 25.3129421]]]}}